{"type":"FeatureCollection","features":[{"type":"Feature","properties":{"stroke":"#555555","stroke-width":2,"stroke-opacity":1,"name":""},"geometry":{"coordinates":[[-91.9181,42.763],[-91.9099,42.7649],[-91.9,42.7665],[-91.8961,42.7668]],"type":"LineString"}},{"type":"Feature","properties":{"stroke":"#555555","stroke-width":2,"stroke-opacity":1,"name":""},"geometry":{"coordinates":[[-91.8735,42.7675],[-91.8698,42.7674],[-91.8598,42.7665],[-91.8512,42.7651]],"type":"LineString"}},{"type":"Feature","properties":{"stroke":"#555555","stroke-width":2,"stroke-opacity":1,"name":""},"geometry":{"coordinates":[[-91.83,42.7594],[-91.8219,42.7563],[-91.8134,42.7524],[-91.8107,42.7508]],"type":"LineString"}},{"type":"Feature","properties":{"stroke":"#555555","stroke-width":2,"stroke-opacity":1,"name":""},"geometry":{"coordinates":[[-91.794,42.7396],[-91.7911,42.7373],[-91.785,42.7314],[-91.7805,42.7263]],"type":"LineString"}},{"type":"Feature","properties":{"stroke":"#555555","stroke-width":2,"stroke-opacity":1,"name":""},"geometry":{"coordinates":[[-91.7708,42.7112],[-91.768,42.7046],[-91.7658,42.6974],[-91.7654,42.6951]],"type":"LineString"}},{"type":"Feature","properties":{"stroke":"#555555","stroke-width":2,"stroke-opacity":1,"name":""},"geometry":{"coordinates":[[-91.7643,42.6785],[-91.7645,42.6752],[-91.7658,42.6678],[-91.7675,42.662]],"type":"LineString"}},{"type":"Feature","properties":{"stroke":"#555555","stroke-width":2,"stroke-opacity":1,"name":""},"geometry":{"coordinates":[[-91.7751,42.6463],[-91.7796,42.64],[-91.785,42.6337],[-91.7867,42.6321]],"type":"LineString"}},{"type":"Feature","properties":{"stroke":"#555555","stroke-width":2,"stroke-opacity":1,"name":""},"geometry":{"coordinates":[[-91.8018,42.6197],[-91.8054,42.6173],[-91.8135,42.6128],[-91.8198,42.6098]],"type":"LineString"}},{"type":"Feature","properties":{"stroke":"#555555","stroke-width":2,"stroke-opacity":1,"name":""},"geometry":{"coordinates":[[-91.8401,42.6025],[-91.8403,42.6025],[-91.8428,42.6018],[-91.8525,42.5997],[-91.8619,42.5983]],"type":"LineString"}},{"type":"Feature","properties":{"stroke":"#555555","stroke-width":2,"stroke-opacity":1,"name":""},"geometry":{"coordinates":[[-91.8844,42.5973],[-91.8927,42.5977],[-91.9027,42.5988],[-91.9067,42.5995]],"type":"LineString"}},{"type":"Feature","properties":{"stroke":"#555555","stroke-width":2,"stroke-opacity":1,"name":""},"geometry":{"coordinates":[[-91.9281,42.6048],[-91.9314,42.6059],[-91.9403,42.6094],[-91.9476,42.613]],"type":"LineString"}},{"type":"Feature","properties":{"stroke":"#555555","stroke-width":2,"stroke-opacity":1,"name":""},"geometry":{"coordinates":[[-91.9647,42.6239],[-91.9706,42.6289],[-91.9766,42.6349],[-91.9785,42.6371]],"type":"LineString"}},{"type":"Feature","properties":{"stroke":"#555555","stroke-width":2,"stroke-opacity":1,"name":""},"geometry":{"coordinates":[[-91.9886,42.652],[-91.9901,42.6548],[-91.993,42.6619],[-91.9946,42.668]],"type":"LineString"}},{"type":"Feature","properties":{"stroke":"#555555","stroke-width":2,"stroke-opacity":1,"name":""},"geometry":{"coordinates":[[-91.9963,42.6846],[-91.9957,42.6915],[-91.9942,42.6988],[-91.9935,42.7011]],"type":"LineString"}},{"type":"Feature","properties":{"stroke":"#555555","stroke-width":2,"stroke-opacity":1,"name":""},"geometry":{"coordinates":[[-91.9864,42.7169],[-91.9846,42.7199],[-91.9797,42.7264],[-91.9753,42.7314]],"type":"LineString"}},{"type":"Feature","properties":{"stroke":"#555555","stroke-width":2,"stroke-opacity":1,"name":""},"geometry":{"coordinates":[[-91.9606,42.744],[-91.9533,42.7487],[-91.9452,42.7531],[-91.9427,42.7542]],"type":"LineString"}},{"type":"Feature","properties":{"stroke":"#555555","stroke-width":2,"stroke-opacity":1,"name":""},"geometry":{"coordinates":[[-91.9226,42.7617],[-91.9181,42.763]],"type":"LineString"}},{"type":"Feature","properties":{"stroke":"#555555","stroke-width":2,"stroke-opacity":1,"name":""},"geometry":{"coordinates":[[-92.9765,41.5466],[-92.9841,41.5623]],"type":"LineString"}},{"type":"Feature","properties":{"stroke":"#555555","stroke-width":2,"stroke-opacity":1,"name":""},"geometry":{"coordinates":[[-92.9917,41.578],[-92.9966,41.5881],[-92.9986,41.5938]],"type":"LineString"}},{"type":"Feature","properties":{"stroke":"#555555","stroke-width":2,"stroke-opacity":1,"name":""},"geometry":{"coordinates":[[-93.0044,41.6099],[-93.0101,41.626]],"type":"LineString"}},{"type":"Feature","properties":{"stroke":"#555555","stroke-width":2,"stroke-opacity":1,"name":""},"geometry":{"coordinates":[[-93.0158,41.6421],[-93.0216,41.6582]],"type":"LineString"}},{"type":"Feature","properties":{"stroke":"#555555","stroke-width":2,"stroke-opacity":1,"name":""},"geometry":{"coordinates":[[-93.0272,41.6743],[-93.031,41.6908]],"type":"LineString"}},{"type":"Feature","properties":{"stroke":"#555555","stroke-width":2,"stroke-opacity":1,"name":""},"geometry":{"coordinates":[[-93.0349,41.7072],[-93.0387,41.7236]],"type":"LineString"}},{"type":"Feature","properties":{"stroke":"#555555","stroke-width":2,"stroke-opacity":1,"name":""},"geometry":{"coordinates":[[-93.0426,41.74],[-93.0464,41.7565]],"type":"LineString"}},{"type":"Feature","properties":{"stroke":"#555555","stroke-width":2,"stroke-opacity":1,"name":""},"geometry":{"coordinates":[[-93.0486,41.773],[-93.0505,41.7896]],"type":"LineString"}},{"type":"Feature","properties":{"stroke":"#555555","stroke-width":2,"stroke-opacity":1,"name":""},"geometry":{"coordinates":[[-93.0525,41.8063],[-93.0544,41.8229]],"type":"LineString"}},{"type":"Feature","properties":{"stroke":"#555555","stroke-width":2,"stroke-opacity":1,"name":""},"geometry":{"coordinates":[[-93.0563,41.8395],[-93.057,41.8456],[-93.057,41.8561]],"type":"LineString"}},{"type":"Feature","properties":{"stroke":"#555555","stroke-width":2,"stroke-opacity":1,"name":""},"geometry":{"coordinates":[[-93.057,41.8728],[-93.0569,41.8895]],"type":"LineString"}},{"type":"Feature","properties":{"stroke":"#555555","stroke-width":2,"stroke-opacity":1,"name":""},"geometry":{"coordinates":[[-93.0569,41.9061],[-93.0569,41.9228]],"type":"LineString"}},{"type":"Feature","properties":{"stroke":"#555555","stroke-width":2,"stroke-opacity":1,"name":""},"geometry":{"coordinates":[[-93.0561,41.9395],[-93.0541,41.9561]],"type":"LineString"}},{"type":"Feature","properties":{"stroke":"#555555","stroke-width":2,"stroke-opacity":1,"name":""},"geometry":{"coordinates":[[-93.0521,41.9727],[-93.0501,41.9893]],"type":"LineString"}},{"type":"Feature","properties":{"stroke":"#555555","stroke-width":2,"stroke-opacity":1,"name":""},"geometry":{"coordinates":[[-93.0482,42.0059],[-93.0466,42.0194],[-93.0458,42.0225]],"type":"LineString"}},{"type":"Feature","properties":{"stroke":"#555555","stroke-width":2,"stroke-opacity":1,"name":""},"geometry":{"coordinates":[[-93.0419,42.0389],[-93.038,42.0553]],"type":"LineString"}},{"type":"Feature","properties":{"stroke":"#555555","stroke-width":2,"stroke-opacity":1,"name":""},"geometry":{"coordinates":[[-93.034,42.0717],[-93.0301,42.0881]],"type":"LineString"}},{"type":"Feature","properties":{"stroke":"#555555","stroke-width":2,"stroke-opacity":1,"name":""},"geometry":{"coordinates":[[-93.0262,42.1045],[-93.0261,42.1049],[-93.0204,42.1206]],"type":"LineString"}},{"type":"Feature","properties":{"stroke":"#555555","stroke-width":2,"stroke-opacity":1,"name":""},"geometry":{"coordinates":[[-93.0146,42.1367],[-93.0087,42.1528]],"type":"LineString"}},{"type":"Feature","properties":{"stroke":"#555555","stroke-width":2,"stroke-opacity":1,"name":""},"geometry":{"coordinates":[[-93.0029,42.1689],[-92.997,42.185]],"type":"LineString"}},{"type":"Feature","properties":{"stroke":"#555555","stroke-width":2,"stroke-opacity":1,"name":""},"geometry":{"coordinates":[[-92.9897,42.2008],[-92.982,42.2164]],"type":"LineString"}},{"type":"Feature","properties":{"stroke":"#555555","stroke-width":2,"stroke-opacity":1,"name":""},"geometry":{"coordinates":[[-92.9743,42.2321],[-92.9666,42.2477]],"type":"LineString"}},{"type":"Feature","properties":{"stroke":"#555555","stroke-width":2,"stroke-opacity":1,"name":""},"geometry":{"coordinates":[[-92.9588,42.2634],[-92.9555,42.2701],[-92.9501,42.2787]],"type":"LineString"}},{"type":"Feature","properties":{"stroke":"#555555","stroke-width":2,"stroke-opacity":1,"name":""},"geometry":{"coordinates":[[-92.9406,42.2938],[-92.931,42.3089]],"type":"LineString"}},{"type":"Feature","properties":{"stroke":"#555555","stroke-width":2,"stroke-opacity":1,"name":""},"geometry":{"coordinates":[[-92.7594,41.2579],[-92.7736,41.2707]],"type":"LineString"}},{"type":"Feature","properties":{"stroke":"#555555","stroke-width":2,"stroke-opacity":1,"name":""},"geometry":{"coordinates":[[-92.7872,41.2838],[-92.7999,41.2975]],"type":"LineString"}},{"type":"Feature","properties":{"stroke":"#555555","stroke-width":2,"stroke-opacity":1,"name":""},"geometry":{"coordinates":[[-92.8126,41.3111],[-92.8253,41.3248]],"type":"LineString"}},{"type":"Feature","properties":{"stroke":"#555555","stroke-width":2,"stroke-opacity":1,"name":""},"geometry":{"coordinates":[[-92.838,41.3384],[-92.849,41.3502],[-92.8505,41.3522]],"type":"LineString"}},{"type":"Feature","properties":{"stroke":"#555555","stroke-width":2,"stroke-opacity":1,"name":""},"geometry":{"coordinates":[[-92.8616,41.3666],[-92.8726,41.3811]],"type":"LineString"}},{"type":"Feature","properties":{"stroke":"#555555","stroke-width":2,"stroke-opacity":1,"name":""},"geometry":{"coordinates":[[-92.8837,41.3955],[-92.8948,41.4099]],"type":"LineString"}},{"type":"Feature","properties":{"stroke":"#555555","stroke-width":2,"stroke-opacity":1,"name":""},"geometry":{"coordinates":[[-92.9059,41.4244],[-92.9074,41.4263],[-92.9155,41.4394]],"type":"LineString"}},{"type":"Feature","properties":{"stroke":"#555555","stroke-width":2,"stroke-opacity":1,"name":""},"geometry":{"coordinates":[[-92.9249,41.4545],[-92.9342,41.4696]],"type":"LineString"}},{"type":"Feature","properties":{"stroke":"#555555","stroke-width":2,"stroke-opacity":1,"name":""},"geometry":{"coordinates":[[-92.9436,41.4847],[-92.953,41.4998]],"type":"LineString"}},{"type":"Feature","properties":{"stroke":"#555555","stroke-width":2,"stroke-opacity":1,"name":""},"geometry":{"coordinates":[[-92.9613,41.5153],[-92.9689,41.531]],"type":"LineString"}},{"type":"Feature","properties":{"stroke":"#555555","stroke-width":2,"stroke-opacity":1,"name":""},"geometry":{"coordinates":[[-92.5038,41.0753],[-92.5218,41.0848]],"type":"LineString"}},{"type":"Feature","properties":{"stroke":"#555555","stroke-width":2,"stroke-opacity":1,"name":""},"geometry":{"coordinates":[[-92.5395,41.0947],[-92.5564,41.1054]],"type":"LineString"}},{"type":"Feature","properties":{"stroke":"#555555","stroke-width":2,"stroke-opacity":1,"name":""},"geometry":{"coordinates":[[-92.5733,41.1161],[-92.5902,41.1268]],"type":"LineString"}},{"type":"Feature","properties":{"stroke":"#555555","stroke-width":2,"stroke-opacity":1,"name":""},"geometry":{"coordinates":[[-92.6071,41.1376],[-92.6241,41.1483]],"type":"LineString"}},{"type":"Feature","properties":{"stroke":"#555555","stroke-width":2,"stroke-opacity":1,"name":""},"geometry":{"coordinates":[[-92.6397,41.16],[-92.6553,41.1718]],"type":"LineString"}},{"type":"Feature","properties":{"stroke":"#555555","stroke-width":2,"stroke-opacity":1,"name":""},"geometry":{"coordinates":[[-92.6709,41.1836],[-92.6865,41.1954]],"type":"LineString"}},{"type":"Feature","properties":{"stroke":"#555555","stroke-width":2,"stroke-opacity":1,"name":""},"geometry":{"coordinates":[[-92.7022,41.2072],[-92.7068,41.2107],[-92.7168,41.2196]],"type":"LineString"}},{"type":"Feature","properties":{"stroke":"#555555","stroke-width":2,"stroke-opacity":1,"name":""},"geometry":{"coordinates":[[-92.731,41.2324],[-92.7452,41.2452]],"type":"LineString"}},{"type":"Feature","properties":{"stroke":"#555555","stroke-width":2,"stroke-opacity":1,"name":""},"geometry":{"coordinates":[[-92.3157,40.989],[-92.3357,40.996]],"type":"LineString"}},{"type":"Feature","properties":{"stroke":"#555555","stroke-width":2,"stroke-opacity":1,"name":""},"geometry":{"coordinates":[[-92.3548,41.0042],[-92.3739,41.0126]],"type":"LineString"}},{"type":"Feature","properties":{"stroke":"#555555","stroke-width":2,"stroke-opacity":1,"name":""},"geometry":{"coordinates":[[-92.393,41.0209],[-92.412,41.0292]],"type":"LineString"}},{"type":"Feature","properties":{"stroke":"#555555","stroke-width":2,"stroke-opacity":1,"name":""},"geometry":{"coordinates":[[-92.4311,41.0375],[-92.4389,41.0409],[-92.4496,41.0466]],"type":"LineString"}},{"type":"Feature","properties":{"stroke":"#555555","stroke-width":2,"stroke-opacity":1,"name":""},"geometry":{"coordinates":[[-92.4676,41.0562],[-92.4857,41.0657]],"type":"LineString"}},{"type":"Feature","properties":{"stroke":"#555555","stroke-width":2,"stroke-opacity":1,"name":""},"geometry":{"coordinates":[[-91.9407,40.8968],[-91.9623,40.8997]],"type":"LineString"}},{"type":"Feature","properties":{"stroke":"#555555","stroke-width":2,"stroke-opacity":1,"name":""},"geometry":{"coordinates":[[-91.984,40.9026],[-92.0056,40.9055]],"type":"LineString"}},{"type":"Feature","properties":{"stroke":"#555555","stroke-width":2,"stroke-opacity":1,"name":""},"geometry":{"coordinates":[[-92.0269,40.9097],[-92.0481,40.914]],"type":"LineString"}},{"type":"Feature","properties":{"stroke":"#555555","stroke-width":2,"stroke-opacity":1,"name":""},"geometry":{"coordinates":[[-92.0694,40.9183],[-92.0906,40.9226]],"type":"LineString"}},{"type":"Feature","properties":{"stroke":"#555555","stroke-width":2,"stroke-opacity":1,"name":""},"geometry":{"coordinates":[[-92.1118,40.9269],[-92.1217,40.9289],[-92.1328,40.932]],"type":"LineString"}},{"type":"Feature","properties":{"stroke":"#555555","stroke-width":2,"stroke-opacity":1,"name":""},"geometry":{"coordinates":[[-92.1534,40.9377],[-92.1741,40.9434]],"type":"LineString"}},{"type":"Feature","properties":{"stroke":"#555555","stroke-width":2,"stroke-opacity":1,"name":""},"geometry":{"coordinates":[[-92.1948,40.9491],[-92.2154,40.9548]],"type":"LineString"}},{"type":"Feature","properties":{"stroke":"#555555","stroke-width":2,"stroke-opacity":1,"name":""},"geometry":{"coordinates":[[-92.2359,40.9608],[-92.2559,40.9679]],"type":"LineString"}},{"type":"Feature","properties":{"stroke":"#555555","stroke-width":2,"stroke-opacity":1,"name":""},"geometry":{"coordinates":[[-92.2758,40.9749],[-92.2958,40.9819]],"type":"LineString"}},{"type":"Feature","properties":{"stroke":"#555555","stroke-width":2,"stroke-opacity":1,"name":""},"geometry":{"coordinates":[[-91.5034,40.8955],[-91.5251,40.8926]],"type":"LineString"}},{"type":"Feature","properties":{"stroke":"#555555","stroke-width":2,"stroke-opacity":1,"name":""},"geometry":{"coordinates":[[-91.5468,40.89],[-91.5687,40.8885]],"type":"LineString"}},{"type":"Feature","properties":{"stroke":"#555555","stroke-width":2,"stroke-opacity":1,"name":""},"geometry":{"coordinates":[[-91.5906,40.8871],[-91.6124,40.8857]],"type":"LineString"}},{"type":"Feature","properties":{"stroke":"#555555","stroke-width":2,"stroke-opacity":1,"name":""},"geometry":{"coordinates":[[-91.6343,40.8843],[-91.6562,40.8828]],"type":"LineString"}},{"type":"Feature","properties":{"stroke":"#555555","stroke-width":2,"stroke-opacity":1,"name":""},"geometry":{"coordinates":[[-91.6782,40.8826],[-91.7002,40.8826]],"type":"LineString"}},{"type":"Feature","properties":{"stroke":"#555555","stroke-width":2,"stroke-opacity":1,"name":""},"geometry":{"coordinates":[[-91.7221,40.8826],[-91.7441,40.8827]],"type":"LineString"}},{"type":"Feature","properties":{"stroke":"#555555","stroke-width":2,"stroke-opacity":1,"name":""},"geometry":{"coordinates":[[-91.7661,40.8827],[-91.7769,40.8827],[-91.788,40.8834]],"type":"LineString"}},{"type":"Feature","properties":{"stroke":"#555555","stroke-width":2,"stroke-opacity":1,"name":""},"geometry":{"coordinates":[[-91.8099,40.8849],[-91.8318,40.8864]],"type":"LineString"}},{"type":"Feature","properties":{"stroke":"#555555","stroke-width":2,"stroke-opacity":1,"name":""},"geometry":{"coordinates":[[-91.8537,40.8878],[-91.8756,40.8893]],"type":"LineString"}},{"type":"Feature","properties":{"stroke":"#555555","stroke-width":2,"stroke-opacity":1,"name":""},"geometry":{"coordinates":[[-91.8974,40.891],[-91.919,40.8939]],"type":"LineString"}},{"type":"Feature","properties":{"stroke":"#555555","stroke-width":2,"stroke-opacity":1,"name":""},"geometry":{"coordinates":[[-91.2075,40.9577],[-91.2282,40.952]],"type":"LineString"}},{"type":"Feature","properties":{"stroke":"#555555","stroke-width":2,"stroke-opacity":1,"name":""},"geometry":{"coordinates":[[-91.2489,40.9464],[-91.2696,40.9407]],"type":"LineString"}},{"type":"Feature","properties":{"stroke":"#555555","stroke-width":2,"stroke-opacity":1,"name":""},"geometry":{"coordinates":[[-91.2902,40.935],[-91.3109,40.9294]],"type":"LineString"}},{"type":"Feature","properties":{"stroke":"#555555","stroke-width":2,"stroke-opacity":1,"name":""},"geometry":{"coordinates":[[-91.332,40.9248],[-91.3533,40.9205]],"type":"LineString"}},{"type":"Feature","properties":{"stroke":"#555555","stroke-width":2,"stroke-opacity":1,"name":""},"geometry":{"coordinates":[[-91.3745,40.9162],[-91.3958,40.912]],"type":"LineString"}},{"type":"Feature","properties":{"stroke":"#555555","stroke-width":2,"stroke-opacity":1,"name":""},"geometry":{"coordinates":[[-91.417,40.9077],[-91.428,40.9055],[-91.4385,40.9041]],"type":"LineString"}},{"type":"Feature","properties":{"stroke":"#555555","stroke-width":2,"stroke-opacity":1,"name":""},"geometry":{"coordinates":[[-91.4601,40.9012],[-91.4818,40.8983]],"type":"LineString"}},{"type":"Feature","properties":{"stroke":"#555555","stroke-width":2,"stroke-opacity":1,"name":""},"geometry":{"coordinates":[[-90.9748,41.0516],[-90.9929,41.0421]],"type":"LineString"}},{"type":"Feature","properties":{"stroke":"#555555","stroke-width":2,"stroke-opacity":1,"name":""},"geometry":{"coordinates":[[-91.0117,41.0335],[-91.0308,41.0252]],"type":"LineString"}},{"type":"Feature","properties":{"stroke":"#555555","stroke-width":2,"stroke-opacity":1,"name":""},"geometry":{"coordinates":[[-91.0499,41.0169],[-91.069,41.0086]],"type":"LineString"}},{"type":"Feature","properties":{"stroke":"#555555","stroke-width":2,"stroke-opacity":1,"name":""},"geometry":{"coordinates":[[-91.0881,41.0003],[-91.0988,40.9956],[-91.1076,40.9926]],"type":"LineString"}},{"type":"Feature","properties":{"stroke":"#555555","stroke-width":2,"stroke-opacity":1,"name":""},"geometry":{"coordinates":[[-91.1275,40.9856],[-91.1475,40.9786]],"type":"LineString"}},{"type":"Feature","properties":{"stroke":"#555555","stroke-width":2,"stroke-opacity":1,"name":""},"geometry":{"coordinates":[[-91.1675,40.9715],[-91.1874,40.9645]],"type":"LineString"}},{"type":"Feature","properties":{"stroke":"#555555","stroke-width":2,"stroke-opacity":1,"name":""},"geometry":{"coordinates":[[-90.8672,41.1098],[-90.8848,41.0997]],"type":"LineString"}},{"type":"Feature","properties":{"stroke":"#555555","stroke-width":2,"stroke-opacity":1,"name":""},"geometry":{"coordinates":[[-90.9024,41.0897],[-90.9205,41.0802]],"type":"LineString"}},{"type":"Feature","properties":{"stroke":"#555555","stroke-width":2,"stroke-opacity":1,"name":""},"geometry":{"coordinates":[[-90.9386,41.0707],[-90.9567,41.0612]],"type":"LineString"}},{"type":"Feature","properties":{"stroke":"#555555","stroke-width":2,"stroke-opacity":1,"name":""},"geometry":{"coordinates":[[-90.7388,41.201],[-90.754,41.1889]],"type":"LineString"}},{"type":"Feature","properties":{"stroke":"#555555","stroke-width":2,"stroke-opacity":1,"name":""},"geometry":{"coordinates":[[-90.7692,41.1768],[-90.7843,41.1646]],"type":"LineString"}},{"type":"Feature","properties":{"stroke":"#555555","stroke-width":2,"stroke-opacity":1,"name":""},"geometry":{"coordinates":[[-90.8001,41.153],[-90.8166,41.142]],"type":"LineString"}},{"type":"Feature","properties":{"stroke":"#555555","stroke-width":2,"stroke-opacity":1,"name":""},"geometry":{"coordinates":[[-90.8331,41.1309],[-90.8496,41.1198]],"type":"LineString"}},{"type":"Feature","properties":{"stroke":"#555555","stroke-width":2,"stroke-opacity":1,"name":""},"geometry":{"coordinates":[[-90.7252,41.2123],[-90.7289,41.209],[-90.7388,41.201]],"type":"LineString"}},{"type":"Feature","properties":{"stroke":"#555555","stroke-width":2,"stroke-opacity":1,"name":""},"geometry":{"coordinates":[[-90.6412,41.2896],[-90.6536,41.2763],[-90.654,41.276]],"type":"LineString"}},{"type":"Feature","properties":{"stroke":"#555555","stroke-width":2,"stroke-opacity":1,"name":""},"geometry":{"coordinates":[[-90.6682,41.2633],[-90.6825,41.2506]],"type":"LineString"}},{"type":"Feature","properties":{"stroke":"#555555","stroke-width":2,"stroke-opacity":1,"name":""},"geometry":{"coordinates":[[-90.6967,41.2378],[-90.711,41.2251]],"type":"LineString"}},{"type":"Feature","properties":{"stroke":"#555555","stroke-width":2,"stroke-opacity":1,"name":""},"geometry":{"coordinates":[[-90.5453,41.4016],[-90.5564,41.3872]],"type":"LineString"}},{"type":"Feature","properties":{"stroke":"#555555","stroke-width":2,"stroke-opacity":1,"name":""},"geometry":{"coordinates":[[-90.5675,41.3728],[-90.5786,41.3583]],"type":"LineString"}},{"type":"Feature","properties":{"stroke":"#555555","stroke-width":2,"stroke-opacity":1,"name":""},"geometry":{"coordinates":[[-90.5902,41.3442],[-90.603,41.3305]],"type":"LineString"}},{"type":"Feature","properties":{"stroke":"#555555","stroke-width":2,"stroke-opacity":1,"name":""},"geometry":{"coordinates":[[-90.6157,41.3169],[-90.6285,41.3033]],"type":"LineString"}},{"type":"Feature","properties":{"stroke":"#555555","stroke-width":2,"stroke-opacity":1,"name":""},"geometry":{"coordinates":[[-90.4693,41.5219],[-90.4769,41.5063]],"type":"LineString"}},{"type":"Feature","properties":{"stroke":"#555555","stroke-width":2,"stroke-opacity":1,"name":""},"geometry":{"coordinates":[[-90.4861,41.4911],[-90.4955,41.476]],"type":"LineString"}},{"type":"Feature","properties":{"stroke":"#555555","stroke-width":2,"stroke-opacity":1,"name":""},"geometry":{"coordinates":[[-90.5049,41.4609],[-90.5143,41.4458]],"type":"LineString"}},{"type":"Feature","properties":{"stroke":"#555555","stroke-width":2,"stroke-opacity":1,"name":""},"geometry":{"coordinates":[[-90.5237,41.4307],[-90.5278,41.4243],[-90.5341,41.416]],"type":"LineString"}},{"type":"Feature","properties":{"stroke":"#555555","stroke-width":2,"stroke-opacity":1,"name":""},"geometry":{"coordinates":[[-90.427,41.6167],[-90.4328,41.6006]],"type":"LineString"}},{"type":"Feature","properties":{"stroke":"#555555","stroke-width":2,"stroke-opacity":1,"name":""},"geometry":{"coordinates":[[-90.4387,41.5846],[-90.4464,41.5689]],"type":"LineString"}},{"type":"Feature","properties":{"stroke":"#555555","stroke-width":2,"stroke-opacity":1,"name":""},"geometry":{"coordinates":[[-90.454,41.5532],[-90.4617,41.5376]],"type":"LineString"}},{"type":"Feature","properties":{"stroke":"#555555","stroke-width":2,"stroke-opacity":1,"name":""},"geometry":{"coordinates":[[-90.3804,41.8133],[-90.3824,41.7967]],"type":"LineString"}},{"type":"Feature","properties":{"stroke":"#555555","stroke-width":2,"stroke-opacity":1,"name":""},"geometry":{"coordinates":[[-90.3844,41.7801],[-90.3863,41.7635]],"type":"LineString"}},{"type":"Feature","properties":{"stroke":"#555555","stroke-width":2,"stroke-opacity":1,"name":""},"geometry":{"coordinates":[[-90.3894,41.747],[-90.3933,41.7305]],"type":"LineString"}},{"type":"Feature","properties":{"stroke":"#555555","stroke-width":2,"stroke-opacity":1,"name":""},"geometry":{"coordinates":[[-90.3972,41.7141],[-90.4011,41.6977]],"type":"LineString"}},{"type":"Feature","properties":{"stroke":"#555555","stroke-width":2,"stroke-opacity":1,"name":""},"geometry":{"coordinates":[[-90.405,41.6813],[-90.4076,41.6704],[-90.4096,41.665]],"type":"LineString"}},{"type":"Feature","properties":{"stroke":"#555555","stroke-width":2,"stroke-opacity":1,"name":""},"geometry":{"coordinates":[[-90.4154,41.6489],[-90.4212,41.6328]],"type":"LineString"}},{"type":"Feature","properties":{"stroke":"#555555","stroke-width":2,"stroke-opacity":1,"name":""},"geometry":{"coordinates":[[-90.4013,42.0787],[-90.3974,42.0622]],"type":"LineString"}},{"type":"Feature","properties":{"stroke":"#555555","stroke-width":2,"stroke-opacity":1,"name":""},"geometry":{"coordinates":[[-90.3935,42.0458],[-90.3897,42.0294]],"type":"LineString"}},{"type":"Feature","properties":{"stroke":"#555555","stroke-width":2,"stroke-opacity":1,"name":""},"geometry":{"coordinates":[[-90.3863,42.0129],[-90.3844,41.9963]],"type":"LineString"}},{"type":"Feature","properties":{"stroke":"#555555","stroke-width":2,"stroke-opacity":1,"name":""},"geometry":{"coordinates":[[-90.3824,41.9797],[-90.3805,41.9631]],"type":"LineString"}},{"type":"Feature","properties":{"stroke":"#555555","stroke-width":2,"stroke-opacity":1,"name":""},"geometry":{"coordinates":[[-90.3786,41.9465],[-90.3767,41.9305],[-90.3767,41.9299]],"type":"LineString"}},{"type":"Feature","properties":{"stroke":"#555555","stroke-width":2,"stroke-opacity":1,"name":""},"geometry":{"coordinates":[[-90.3767,41.9132],[-90.3768,41.8965]],"type":"LineString"}},{"type":"Feature","properties":{"stroke":"#555555","stroke-width":2,"stroke-opacity":1,"name":""},"geometry":{"coordinates":[[-90.3768,41.8799],[-90.3768,41.8632]],"type":"LineString"}},{"type":"Feature","properties":{"stroke":"#555555","stroke-width":2,"stroke-opacity":1,"name":""},"geometry":{"coordinates":[[-90.3768,41.8465],[-90.3768,41.8433],[-90.3784,41.8299]],"type":"LineString"}},{"type":"Feature","properties":{"stroke":"#555555","stroke-width":2,"stroke-opacity":1,"name":""},"geometry":{"coordinates":[[-90.4332,42.1757],[-90.4274,42.1596]],"type":"LineString"}},{"type":"Feature","properties":{"stroke":"#555555","stroke-width":2,"stroke-opacity":1,"name":""},"geometry":{"coordinates":[[-90.4216,42.1435],[-90.4158,42.1274]],"type":"LineString"}},{"type":"Feature","properties":{"stroke":"#555555","stroke-width":2,"stroke-opacity":1,"name":""},"geometry":{"coordinates":[[-90.4101,42.1113],[-90.407,42.1027],[-90.4052,42.0951]],"type":"LineString"}},{"type":"Feature","properties":{"stroke":"#555555","stroke-width":2,"stroke-opacity":1,"name":""},"geometry":{"coordinates":[[-90.5594,42.3888],[-90.5481,42.3744]],"type":"LineString"}},{"type":"Feature","properties":{"stroke":"#555555","stroke-width":2,"stroke-opacity":1,"name":""},"geometry":{"coordinates":[[-90.5369,42.36],[-90.5264,42.3465],[-90.5257,42.3455]],"type":"LineString"}},{"type":"Feature","properties":{"stroke":"#555555","stroke-width":2,"stroke-opacity":1,"name":""},"geometry":{"coordinates":[[-90.5162,42.3304],[-90.5067,42.3153]],"type":"LineString"}},{"type":"Feature","properties":{"stroke":"#555555","stroke-width":2,"stroke-opacity":1,"name":""},"geometry":{"coordinates":[[-90.4972,42.3002],[-90.4877,42.2851]],"type":"LineString"}},{"type":"Feature","properties":{"stroke":"#555555","stroke-width":2,"stroke-opacity":1,"name":""},"geometry":{"coordinates":[[-90.4782,42.27],[-90.477,42.268],[-90.4703,42.2544]],"type":"LineString"}},{"type":"Feature","properties":{"stroke":"#555555","stroke-width":2,"stroke-opacity":1,"name":""},"geometry":{"coordinates":[[-90.4627,42.2387],[-90.455,42.223]],"type":"LineString"}},{"type":"Feature","properties":{"stroke":"#555555","stroke-width":2,"stroke-opacity":1,"name":""},"geometry":{"coordinates":[[-90.4473,42.2074],[-90.4396,42.1917]],"type":"LineString"}},{"type":"Feature","properties":{"stroke":"#555555","stroke-width":2,"stroke-opacity":1,"name":""},"geometry":{"coordinates":[[-90.6331,42.4725],[-90.6202,42.4589]],"type":"LineString"}},{"type":"Feature","properties":{"stroke":"#555555","stroke-width":2,"stroke-opacity":1,"name":""},"geometry":{"coordinates":[[-90.6073,42.4452],[-90.5944,42.4315]],"type":"LineString"}},{"type":"Feature","properties":{"stroke":"#555555","stroke-width":2,"stroke-opacity":1,"name":""},"geometry":{"coordinates":[[-90.5819,42.4177],[-90.5706,42.4033]],"type":"LineString"}},{"type":"Feature","properties":{"stroke":"#555555","stroke-width":2,"stroke-opacity":1,"name":""},"geometry":{"coordinates":[[-90.7489,42.5745],[-90.7329,42.5627]],"type":"LineString"}},{"type":"Feature","properties":{"stroke":"#555555","stroke-width":2,"stroke-opacity":1,"name":""},"geometry":{"coordinates":[[-90.7179,42.5504],[-90.7034,42.5376]],"type":"LineString"}},{"type":"Feature","properties":{"stroke":"#555555","stroke-width":2,"stroke-opacity":1,"name":""},"geometry":{"coordinates":[[-90.6889,42.5248],[-90.6744,42.5121]],"type":"LineString"}},{"type":"Feature","properties":{"stroke":"#555555","stroke-width":2,"stroke-opacity":1,"name":""},"geometry":{"coordinates":[[-90.6599,42.4993],[-90.6518,42.4922],[-90.6461,42.4861]],"type":"LineString"}},{"type":"Feature","properties":{"stroke":"#555555","stroke-width":2,"stroke-opacity":1,"name":""},"geometry":{"coordinates":[[-90.8822,42.6643],[-90.8649,42.6535]],"type":"LineString"}},{"type":"Feature","properties":{"stroke":"#555555","stroke-width":2,"stroke-opacity":1,"name":""},"geometry":{"coordinates":[[-90.8476,42.6428],[-90.8303,42.6321]],"type":"LineString"}},{"type":"Feature","properties":{"stroke":"#555555","stroke-width":2,"stroke-opacity":1,"name":""},"geometry":{"coordinates":[[-90.813,42.6214],[-90.8095,42.6193],[-90.7968,42.6099]],"type":"LineString"}},{"type":"Feature","properties":{"stroke":"#555555","stroke-width":2,"stroke-opacity":1,"name":""},"geometry":{"coordinates":[[-90.7808,42.5981],[-90.7648,42.5863]],"type":"LineString"}},{"type":"Feature","properties":{"stroke":"#555555","stroke-width":2,"stroke-opacity":1,"name":""},"geometry":{"coordinates":[[-91.0312,42.7395],[-91.0116,42.7312]],"type":"LineString"}},{"type":"Feature","properties":{"stroke":"#555555","stroke-width":2,"stroke-opacity":1,"name":""},"geometry":{"coordinates":[[-90.9922,42.7227],[-90.9736,42.7131]],"type":"LineString"}},{"type":"Feature","properties":{"stroke":"#555555","stroke-width":2,"stroke-opacity":1,"name":""},"geometry":{"coordinates":[[-90.9551,42.7036],[-90.9366,42.694]],"type":"LineString"}},{"type":"Feature","properties":{"stroke":"#555555","stroke-width":2,"stroke-opacity":1,"name":""},"geometry":{"coordinates":[[-90.9181,42.6845],[-90.8996,42.6749]],"type":"LineString"}},{"type":"Feature","properties":{"stroke":"#555555","stroke-width":2,"stroke-opacity":1,"name":""},"geometry":{"coordinates":[[-91.2344,42.8122],[-91.2132,42.8065]],"type":"LineString"}},{"type":"Feature","properties":{"stroke":"#555555","stroke-width":2,"stroke-opacity":1,"name":""},"geometry":{"coordinates":[[-91.1922,42.8001],[-91.1717,42.7931]],"type":"LineString"}},{"type":"Feature","properties":{"stroke":"#555555","stroke-width":2,"stroke-opacity":1,"name":""},"geometry":{"coordinates":[[-91.1512,42.786],[-91.1307,42.779]],"type":"LineString"}},{"type":"Feature","properties":{"stroke":"#555555","stroke-width":2,"stroke-opacity":1,"name":""},"geometry":{"coordinates":[[-91.1102,42.772],[-91.0961,42.7671],[-91.09,42.7645]],"type":"LineString"}},{"type":"Feature","properties":{"stroke":"#555555","stroke-width":2,"stroke-opacity":1,"name":""},"geometry":{"coordinates":[[-91.0704,42.7562],[-91.0508,42.7479]],"type":"LineString"}},{"type":"Feature","properties":{"stroke":"#555555","stroke-width":2,"stroke-opacity":1,"name":""},"geometry":{"coordinates":[[-91.5859,42.8732],[-91.5634,42.8718]],"type":"LineString"}},{"type":"Feature","properties":{"stroke":"#555555","stroke-width":2,"stroke-opacity":1,"name":""},"geometry":{"coordinates":[[-91.5408,42.8703],[-91.5403,42.8703],[-91.5185,42.8674]],"type":"LineString"}},{"type":"Feature","properties":{"stroke":"#555555","stroke-width":2,"stroke-opacity":1,"name":""},"geometry":{"coordinates":[[-91.4962,42.8645],[-91.4738,42.8616]],"type":"LineString"}},{"type":"Feature","properties":{"stroke":"#555555","stroke-width":2,"stroke-opacity":1,"name":""},"geometry":{"coordinates":[[-91.4515,42.8587],[-91.4292,42.8558]],"type":"LineString"}},{"type":"Feature","properties":{"stroke":"#555555","stroke-width":2,"stroke-opacity":1,"name":""},"geometry":{"coordinates":[[-91.4073,42.8518],[-91.3854,42.8474]],"type":"LineString"}},{"type":"Feature","properties":{"stroke":"#555555","stroke-width":2,"stroke-opacity":1,"name":""},"geometry":{"coordinates":[[-91.3635,42.8431],[-91.3416,42.8388]],"type":"LineString"}},{"type":"Feature","properties":{"stroke":"#555555","stroke-width":2,"stroke-opacity":1,"name":""},"geometry":{"coordinates":[[-91.3198,42.8345],[-91.3121,42.833],[-91.2983,42.8293]],"type":"LineString"}},{"type":"Feature","properties":{"stroke":"#555555","stroke-width":2,"stroke-opacity":1,"name":""},"geometry":{"coordinates":[[-91.277,42.8236],[-91.2557,42.8179]],"type":"LineString"}},{"type":"Feature","properties":{"stroke":"#555555","stroke-width":2,"stroke-opacity":1,"name":""},"geometry":{"coordinates":[[-91.9023,42.869],[-91.8904,42.8705],[-91.8799,42.8712]],"type":"LineString"}},{"type":"Feature","properties":{"stroke":"#555555","stroke-width":2,"stroke-opacity":1,"name":""},"geometry":{"coordinates":[[-91.8573,42.8726],[-91.8347,42.8741]],"type":"LineString"}},{"type":"Feature","properties":{"stroke":"#555555","stroke-width":2,"stroke-opacity":1,"name":""},"geometry":{"coordinates":[[-91.8122,42.8755],[-91.7896,42.8769]],"type":"LineString"}},{"type":"Feature","properties":{"stroke":"#555555","stroke-width":2,"stroke-opacity":1,"name":""},"geometry":{"coordinates":[[-91.767,42.8779],[-91.7443,42.8779]],"type":"LineString"}},{"type":"Feature","properties":{"stroke":"#555555","stroke-width":2,"stroke-opacity":1,"name":""},"geometry":{"coordinates":[[-91.7217,42.8779],[-91.699,42.8779]],"type":"LineString"}},{"type":"Feature","properties":{"stroke":"#555555","stroke-width":2,"stroke-opacity":1,"name":""},"geometry":{"coordinates":[[-91.6763,42.8778],[-91.6568,42.8778],[-91.6537,42.8776]],"type":"LineString"}},{"type":"Feature","properties":{"stroke":"#555555","stroke-width":2,"stroke-opacity":1,"name":""},"geometry":{"coordinates":[[-91.6311,42.8762],[-91.6085,42.8747]],"type":"LineString"}},{"type":"Feature","properties":{"stroke":"#555555","stroke-width":2,"stroke-opacity":1,"name":""},"geometry":{"coordinates":[[-92.2501,42.7971],[-92.2296,42.8041]],"type":"LineString"}},{"type":"Feature","properties":{"stroke":"#555555","stroke-width":2,"stroke-opacity":1,"name":""},"geometry":{"coordinates":[[-92.2083,42.8098],[-92.187,42.8155]],"type":"LineString"}},{"type":"Feature","properties":{"stroke":"#555555","stroke-width":2,"stroke-opacity":1,"name":""},"geometry":{"coordinates":[[-92.1657,42.8212],[-92.1444,42.8268]],"type":"LineString"}},{"type":"Feature","properties":{"stroke":"#555555","stroke-width":2,"stroke-opacity":1,"name":""},"geometry":{"coordinates":[[-92.1231,42.8325],[-92.1188,42.8336],[-92.1014,42.837]],"type":"LineString"}},{"type":"Feature","properties":{"stroke":"#555555","stroke-width":2,"stroke-opacity":1,"name":""},"geometry":{"coordinates":[[-92.0795,42.8413],[-92.0576,42.8456]],"type":"LineString"}},{"type":"Feature","properties":{"stroke":"#555555","stroke-width":2,"stroke-opacity":1,"name":""},"geometry":{"coordinates":[[-92.0357,42.8499],[-92.0138,42.8542]],"type":"LineString"}},{"type":"Feature","properties":{"stroke":"#555555","stroke-width":2,"stroke-opacity":1,"name":""},"geometry":{"coordinates":[[-91.9916,42.8576],[-91.9693,42.8604]],"type":"LineString"}},{"type":"Feature","properties":{"stroke":"#555555","stroke-width":2,"stroke-opacity":1,"name":""},"geometry":{"coordinates":[[-91.947,42.8633],[-91.9247,42.8662]],"type":"LineString"}},{"type":"Feature","properties":{"stroke":"#555555","stroke-width":2,"stroke-opacity":1,"name":""},"geometry":{"coordinates":[[-92.4108,42.736],[-92.3912,42.7443]],"type":"LineString"}},{"type":"Feature","properties":{"stroke":"#555555","stroke-width":2,"stroke-opacity":1,"name":""},"geometry":{"coordinates":[[-92.3716,42.7526],[-92.352,42.7609]],"type":"LineString"}},{"type":"Feature","properties":{"stroke":"#555555","stroke-width":2,"stroke-opacity":1,"name":""},"geometry":{"coordinates":[[-92.3323,42.7691],[-92.3117,42.7761]],"type":"LineString"}},{"type":"Feature","properties":{"stroke":"#555555","stroke-width":2,"stroke-opacity":1,"name":""},"geometry":{"coordinates":[[-92.2912,42.7831],[-92.2707,42.7901]],"type":"LineString"}},{"type":"Feature","properties":{"stroke":"#555555","stroke-width":2,"stroke-opacity":1,"name":""},"geometry":{"coordinates":[[-92.6597,42.5931],[-92.6437,42.6048]],"type":"LineString"}},{"type":"Feature","properties":{"stroke":"#555555","stroke-width":2,"stroke-opacity":1,"name":""},"geometry":{"coordinates":[[-92.6277,42.6166],[-92.622,42.6208],[-92.6108,42.6277]],"type":"LineString"}},{"type":"Feature","properties":{"stroke":"#555555","stroke-width":2,"stroke-opacity":1,"name":""},"geometry":{"coordinates":[[-92.5935,42.6383],[-92.5761,42.649]],"type":"LineString"}},{"type":"Feature","properties":{"stroke":"#555555","stroke-width":2,"stroke-opacity":1,"name":""},"geometry":{"coordinates":[[-92.5588,42.6597],[-92.5414,42.6704]],"type":"LineString"}},{"type":"Feature","properties":{"stroke":"#555555","stroke-width":2,"stroke-opacity":1,"name":""},"geometry":{"coordinates":[[-92.5235,42.6805],[-92.505,42.69]],"type":"LineString"}},{"type":"Feature","properties":{"stroke":"#555555","stroke-width":2,"stroke-opacity":1,"name":""},"geometry":{"coordinates":[[-92.4864,42.6996],[-92.4679,42.7091]],"type":"LineString"}},{"type":"Feature","properties":{"stroke":"#555555","stroke-width":2,"stroke-opacity":1,"name":""},"geometry":{"coordinates":[[-92.4493,42.7186],[-92.4363,42.7253],[-92.4305,42.7277]],"type":"LineString"}},{"type":"Feature","properties":{"stroke":"#555555","stroke-width":2,"stroke-opacity":1,"name":""},"geometry":{"coordinates":[[-92.7801,42.494],[-92.7655,42.5067]],"type":"LineString"}},{"type":"Feature","properties":{"stroke":"#555555","stroke-width":2,"stroke-opacity":1,"name":""},"geometry":{"coordinates":[[-92.751,42.5194],[-92.7365,42.5322]],"type":"LineString"}},{"type":"Feature","properties":{"stroke":"#555555","stroke-width":2,"stroke-opacity":1,"name":""},"geometry":{"coordinates":[[-92.7219,42.5449],[-92.7074,42.5577]],"type":"LineString"}},{"type":"Feature","properties":{"stroke":"#555555","stroke-width":2,"stroke-opacity":1,"name":""},"geometry":{"coordinates":[[-92.6917,42.5696],[-92.6757,42.5813]],"type":"LineString"}},{"type":"Feature","properties":{"stroke":"#555555","stroke-width":2,"stroke-opacity":1,"name":""},"geometry":{"coordinates":[[-92.8791,42.3827],[-92.8678,42.3971]],"type":"LineString"}},{"type":"Feature","properties":{"stroke":"#555555","stroke-width":2,"stroke-opacity":1,"name":""},"geometry":{"coordinates":[[-92.8565,42.4116],[-92.8473,42.4233],[-92.8449,42.4258]],"type":"LineString"}},{"type":"Feature","properties":{"stroke":"#555555","stroke-width":2,"stroke-opacity":1,"name":""},"geometry":{"coordinates":[[-92.832,42.4395],[-92.819,42.4531]],"type":"LineString"}},{"type":"Feature","properties":{"stroke":"#555555","stroke-width":2,"stroke-opacity":1,"name":""},"geometry":{"coordinates":[[-92.806,42.4667],[-92.7931,42.4803]],"type":"LineString"}},{"type":"Feature","properties":{"stroke":"#555555","stroke-width":2,"stroke-opacity":1,"name":""},"geometry":{"coordinates":[[-92.9215,42.324],[-92.9119,42.3391]],"type":"LineString"}},{"type":"Feature","properties":{"stroke":"#555555","stroke-width":2,"stroke-opacity":1,"name":""},"geometry":{"coordinates":[[-92.9017,42.3539],[-92.8904,42.3683]],"type":"LineString"}},{"type":"Feature","properties":{"stroke":"#555555","stroke-width":2,"stroke-opacity":1,"name":""},"geometry":{"coordinates":[[-91.4107,42.4377],[-91.4063,42.4311],[-91.4048,42.4285],[-91.4012,42.4226]],"type":"LineString"}},{"type":"Feature","properties":{"stroke":"#555555","stroke-width":2,"stroke-opacity":1,"name":""},"geometry":{"coordinates":[[-91.4245,42.4654],[-91.4241,42.4648],[-91.4195,42.4583],[-91.4157,42.4515],[-91.4152,42.4503]],"type":"LineString"}},{"type":"Feature","properties":{"stroke":"#555555","stroke-width":2,"stroke-opacity":1,"name":""},"geometry":{"coordinates":[[-91.6753,42.4571],[-91.6726,42.4635],[-91.6688,42.4702],[-91.6672,42.4726]],"type":"LineString"}},{"type":"Feature","properties":{"stroke":"#555555","stroke-width":2,"stroke-opacity":1,"name":""},"geometry":{"coordinates":[[-91.6551,42.4867],[-91.6529,42.4888],[-91.6463,42.4942],[-91.6462,42.4942],[-91.6396,42.4987]],"type":"LineString"}},{"type":"Feature","properties":{"stroke":"#555555","stroke-width":2,"stroke-opacity":1,"name":""},"geometry":{"coordinates":[[-91.7352,42.4786],[-91.7373,42.4952]],"type":"LineString"}},{"type":"Feature","properties":{"stroke":"#555555","stroke-width":2,"stroke-opacity":1,"name":""},"geometry":{"coordinates":[[-91.7395,42.5117],[-91.7417,42.5283]],"type":"LineString"}},{"type":"Feature","properties":{"stroke":"#555555","stroke-width":2,"stroke-opacity":1,"name":""},"geometry":{"coordinates":[[-91.3917,42.4075],[-91.3912,42.4067],[-91.3882,42.3997],[-91.3859,42.3926],[-91.3857,42.3915]],"type":"LineString"}},{"type":"Feature","properties":{"stroke":"#555555","stroke-width":2,"stroke-opacity":1,"name":""},"geometry":{"coordinates":[[-91.3842,42.3749],[-91.3845,42.3698],[-91.3858,42.3626],[-91.387,42.3584]],"type":"LineString"}},{"type":"Feature","properties":{"stroke":"#555555","stroke-width":2,"stroke-opacity":1,"name":""},"geometry":{"coordinates":[[-91.3942,42.3426],[-91.3947,42.3416],[-91.3993,42.3351],[-91.4046,42.3289],[-91.4054,42.3282]],"type":"LineString"}},{"type":"Feature","properties":{"stroke":"#555555","stroke-width":2,"stroke-opacity":1,"name":""},"geometry":{"coordinates":[[-91.6159,42.3368],[-91.6173,42.3379],[-91.6233,42.3438],[-91.6286,42.35],[-91.6289,42.3503]],"type":"LineString"}},{"type":"Feature","properties":{"stroke":"#555555","stroke-width":2,"stroke-opacity":1,"name":""},"geometry":{"coordinates":[[-91.6424,42.3636],[-91.6474,42.3699],[-91.6517,42.3766],[-91.6532,42.3782]],"type":"LineString"}},{"type":"Feature","properties":{"stroke":"#555555","stroke-width":2,"stroke-opacity":1,"name":""},"geometry":{"coordinates":[[-91.6648,42.3925],[-91.6667,42.3956],[-91.6687,42.3992],[-91.6725,42.4059],[-91.6733,42.4079]],"type":"LineString"}},{"type":"Feature","properties":{"stroke":"#555555","stroke-width":2,"stroke-opacity":1,"name":""},"geometry":{"coordinates":[[-91.6783,42.4241],[-91.6789,42.4272],[-91.6793,42.4345],[-91.6793,42.4347],[-91.679,42.4407]],"type":"LineString"}},{"type":"Feature","properties":{"stroke":"#555555","stroke-width":2,"stroke-opacity":1,"name":""},"geometry":{"coordinates":[[-91.7402,42.3136],[-91.7359,42.3299]],"type":"LineString"}},{"type":"Feature","properties":{"stroke":"#555555","stroke-width":2,"stroke-opacity":1,"name":""},"geometry":{"coordinates":[[-91.7316,42.3463],[-91.7273,42.3627]],"type":"LineString"}},{"type":"Feature","properties":{"stroke":"#555555","stroke-width":2,"stroke-opacity":1,"name":""},"geometry":{"coordinates":[[-91.723,42.379],[-91.7225,42.3808],[-91.7244,42.3956]],"type":"LineString"}},{"type":"Feature","properties":{"stroke":"#555555","stroke-width":2,"stroke-opacity":1,"name":""},"geometry":{"coordinates":[[-91.7266,42.4122],[-91.7287,42.4288]],"type":"LineString"}},{"type":"Feature","properties":{"stroke":"#555555","stroke-width":2,"stroke-opacity":1,"name":""},"geometry":{"coordinates":[[-91.7309,42.4454],[-91.733,42.462]],"type":"LineString"}},{"type":"Feature","properties":{"stroke":"#555555","stroke-width":2,"stroke-opacity":1,"name":""},"geometry":{"coordinates":[[-91.4203,42.3157],[-91.4246,42.3127],[-91.4325,42.3083],[-91.4381,42.3056]],"type":"LineString"}},{"type":"Feature","properties":{"stroke":"#555555","stroke-width":2,"stroke-opacity":1,"name":""},"geometry":{"coordinates":[[-91.4582,42.2983],[-91.4588,42.2981],[-91.4683,42.2959],[-91.478,42.2943],[-91.4799,42.2941]],"type":"LineString"}},{"type":"Feature","properties":{"stroke":"#555555","stroke-width":2,"stroke-opacity":1,"name":""},"geometry":{"coordinates":[[-91.5023,42.2929],[-91.5031,42.2929],[-91.5055,42.2929],[-91.5087,42.2929],[-91.5112,42.2929],[-91.5142,42.2928],[-91.5241,42.2932],[-91.5247,42.2932]],"type":"LineString"}},{"type":"Feature","properties":{"stroke":"#555555","stroke-width":2,"stroke-opacity":1,"name":""},"geometry":{"coordinates":[[-91.5467,42.2965],[-91.5531,42.2979],[-91.5623,42.3008],[-91.5674,42.3028]],"type":"LineString"}},{"type":"Feature","properties":{"stroke":"#555555","stroke-width":2,"stroke-opacity":1,"name":""},"geometry":{"coordinates":[[-91.5861,42.3119],[-91.5873,42.3126],[-91.5946,42.3175],[-91.6013,42.323],[-91.602,42.3237]],"type":"LineString"}},{"type":"Feature","properties":{"stroke":"#555555","stroke-width":2,"stroke-opacity":1,"name":""},"geometry":{"coordinates":[[-91.7614,42.2493],[-91.7573,42.2551],[-91.7529,42.2628],[-91.7522,42.2645]],"type":"LineString"}},{"type":"Feature","properties":{"stroke":"#555555","stroke-width":2,"stroke-opacity":1,"name":""},"geometry":{"coordinates":[[-91.7467,42.2806],[-91.7455,42.287],[-91.745,42.2953],[-91.7445,42.2972]],"type":"LineString"}},{"type":"Feature","properties":{"stroke":"#555555","stroke-width":2,"stroke-opacity":1,"name":""},"geometry":{"coordinates":[[-92.0403,42.2967],[-92.0227,42.2863]],"type":"LineString"}},{"type":"Feature","properties":{"stroke":"#555555","stroke-width":2,"stroke-opacity":1,"name":""},"geometry":{"coordinates":[[-92.0052,42.2759],[-91.998,42.2716],[-91.9947,42.2638],[-91.9939,42.2623]],"type":"LineString"}},{"type":"Feature","properties":{"stroke":"#555555","stroke-width":2,"stroke-opacity":1,"name":""},"geometry":{"coordinates":[[-91.9842,42.2473],[-91.9794,42.2417],[-91.9726,42.235],[-91.971,42.2338]],"type":"LineString"}},{"type":"Feature","properties":{"stroke":"#555555","stroke-width":2,"stroke-opacity":1,"name":""},"geometry":{"coordinates":[[-91.955,42.2222],[-91.948,42.2181],[-91.9385,42.2136],[-91.9365,42.2128]],"type":"LineString"}},{"type":"Feature","properties":{"stroke":"#555555","stroke-width":2,"stroke-opacity":1,"name":""},"geometry":{"coordinates":[[-91.916,42.206],[-91.9076,42.204],[-91.8966,42.2021],[-91.8943,42.2019]],"type":"LineString"}},{"type":"Feature","properties":{"stroke":"#555555","stroke-width":2,"stroke-opacity":1,"name":""},"geometry":{"coordinates":[[-91.872,42.2007],[-91.8631,42.2009],[-91.8519,42.202],[-91.8497,42.2023]],"type":"LineString"}},{"type":"Feature","properties":{"stroke":"#555555","stroke-width":2,"stroke-opacity":1,"name":""},"geometry":{"coordinates":[[-91.8282,42.2068],[-91.8199,42.2093],[-91.8099,42.2131],[-91.808,42.214]],"type":"LineString"}},{"type":"Feature","properties":{"stroke":"#555555","stroke-width":2,"stroke-opacity":1,"name":""},"geometry":{"coordinates":[[-91.7898,42.2237],[-91.7831,42.2282],[-91.7755,42.2343],[-91.7741,42.2356]],"type":"LineString"}},{"type":"Feature","properties":{"stroke":"#555555","stroke-width":2,"stroke-opacity":1,"name":""},"geometry":{"coordinates":[[-92.2067,42.3962],[-92.1995,42.3919],[-92.1992,42.391],[-92.1963,42.3837],[-92.1957,42.3825]],"type":"LineString"}},{"type":"Feature","properties":{"stroke":"#555555","stroke-width":2,"stroke-opacity":1,"name":""},"geometry":{"coordinates":[[-92.1861,42.3674],[-92.1827,42.3633],[-92.1766,42.3571],[-92.1729,42.354]],"type":"LineString"}},{"type":"Feature","properties":{"stroke":"#555555","stroke-width":2,"stroke-opacity":1,"name":""},"geometry":{"coordinates":[[-92.1565,42.3426],[-92.1543,42.3413],[-92.1458,42.3371],[-92.1375,42.3338]],"type":"LineString"}},{"type":"Feature","properties":{"stroke":"#555555","stroke-width":2,"stroke-opacity":1,"name":""},"geometry":{"coordinates":[[-92.1166,42.3277],[-92.1076,42.3261],[-92.0974,42.3249],[-92.0946,42.3248]],"type":"LineString"}},{"type":"Feature","properties":{"stroke":"#555555","stroke-width":2,"stroke-opacity":1,"name":""},"geometry":{"coordinates":[[-92.0754,42.3175],[-92.0578,42.3071]],"type":"LineString"}},{"type":"Feature","properties":{"stroke":"#555555","stroke-width":2,"stroke-opacity":1,"name":""},"geometry":{"coordinates":[[-92.2418,42.417],[-92.2243,42.4066]],"type":"LineString"}},{"type":"Feature","properties":{"stroke":"#555555","stroke-width":2,"stroke-opacity":1,"name":""},"geometry":{"coordinates":[[-91.7438,42.5449],[-91.7439,42.5459]],"type":"LineString"}},{"type":"Feature","properties":{"stroke":"#555555","stroke-width":2,"stroke-opacity":1,"name":""},"geometry":{"coordinates":[[-90.8745,41.6413],[-90.8751,41.642],[-90.8772,41.6447],[-90.8797,41.6478],[-90.88,41.6481],[-90.8824,41.6507],[-90.8852,41.6536],[-90.8869,41.6551]],"type":"LineString"}},{"type":"Feature","properties":{"stroke":"#555555","stroke-width":2,"stroke-opacity":1,"name":""},"geometry":{"coordinates":[[-90.9026,41.6668],[-90.9055,41.6686],[-90.9094,41.6706],[-90.9129,41.6724],[-90.9134,41.6726],[-90.9175,41.6744],[-90.9212,41.676],[-90.9212,41.676]],"type":"LineString"}},{"type":"Feature","properties":{"stroke":"#555555","stroke-width":2,"stroke-opacity":1,"name":""},"geometry":{"coordinates":[[-90.9417,41.6823],[-90.9474,41.6844],[-90.9481,41.6846],[-90.9527,41.686],[-90.9566,41.6871],[-90.9574,41.6873],[-90.9621,41.6883],[-90.9624,41.6884]],"type":"LineString"}},{"type":"Feature","properties":{"stroke":"#555555","stroke-width":2,"stroke-opacity":1,"name":""},"geometry":{"coordinates":[[-90.9842,41.6914],[-90.9857,41.6916],[-90.9865,41.6916],[-90.9915,41.6917],[-90.9957,41.6918],[-90.9964,41.6917],[-91.0014,41.6915],[-91.0064,41.6912],[-91.0064,41.6912]],"type":"LineString"}},{"type":"Feature","properties":{"stroke":"#555555","stroke-width":2,"stroke-opacity":1,"name":""},"geometry":{"coordinates":[[-91.0281,41.6878],[-91.0305,41.6872],[-91.0352,41.686],[-91.0398,41.6845],[-91.0436,41.6832],[-91.0443,41.683],[-91.0485,41.6812]],"type":"LineString"}},{"type":"Feature","properties":{"stroke":"#555555","stroke-width":2,"stroke-opacity":1,"name":""},"geometry":{"coordinates":[[-91.0669,41.6719],[-91.0684,41.671],[-91.069,41.6706],[-91.0696,41.6702],[-91.0726,41.6681],[-91.0756,41.6659],[-91.0761,41.6655],[-91.0767,41.6651],[-91.0794,41.6627],[-91.0822,41.6604],[-91.0825,41.66]],"type":"LineString"}},{"type":"Feature","properties":{"stroke":"#555555","stroke-width":2,"stroke-opacity":1,"name":""},"geometry":{"coordinates":[[-91.0947,41.6461],[-91.0959,41.6442],[-91.0977,41.6415],[-91.098,41.6409],[-91.0999,41.6375],[-91.1016,41.634],[-91.1019,41.6334],[-91.1029,41.6307]],"type":"LineString"}},{"type":"Feature","properties":{"stroke":"#555555","stroke-width":2,"stroke-opacity":1,"name":""},"geometry":{"coordinates":[[-91.1071,41.6143],[-91.1074,41.6128],[-91.1074,41.6122],[-91.1075,41.6116],[-91.1075,41.6085],[-91.1076,41.6054],[-91.1076,41.6048],[-91.1073,41.6011],[-91.107,41.598],[-91.107,41.5977]],"type":"LineString"}},{"type":"Feature","properties":{"stroke":"#555555","stroke-width":2,"stroke-opacity":1,"name":""},"geometry":{"coordinates":[[-91.1024,41.5814],[-91.1015,41.5793],[-91.1001,41.5763],[-91.0998,41.5758],[-91.0979,41.5724],[-91.0958,41.569],[-91.0955,41.5685],[-91.0937,41.5661]],"type":"LineString"}},{"type":"Feature","properties":{"stroke":"#555555","stroke-width":2,"stroke-opacity":1,"name":""},"geometry":{"coordinates":[[-91.0813,41.5523],[-91.0793,41.5505],[-91.0759,41.5478],[-91.0724,41.5452],[-91.0719,41.5448],[-91.0687,41.5427],[-91.0655,41.5406]],"type":"LineString"}},{"type":"Feature","properties":{"stroke":"#555555","stroke-width":2,"stroke-opacity":1,"name":""},"geometry":{"coordinates":[[-91.047,41.5315],[-91.0403,41.529],[-91.0313,41.5253],[-91.0309,41.5252],[-91.0305,41.525],[-91.0272,41.524]],"type":"LineString"}},{"type":"Feature","properties":{"stroke":"#555555","stroke-width":2,"stroke-opacity":1,"name":""},"geometry":{"coordinates":[[-91.0063,41.5184],[-91.0047,41.5181],[-90.9993,41.5172],[-90.9989,41.5171],[-90.9938,41.5165],[-90.9883,41.5159],[-90.9878,41.5158],[-90.9845,41.5157]],"type":"LineString"}},{"type":"Feature","properties":{"stroke":"#555555","stroke-width":2,"stroke-opacity":1,"name":""},"geometry":{"coordinates":[[-90.9623,41.5158],[-90.9556,41.5164]],"type":"LineString"}},{"type":"Feature","properties":{"stroke":"#555555","stroke-width":2,"stroke-opacity":1,"name":""},"geometry":{"coordinates":[[-91.3416,41.6332],[-91.3533,41.6339],[-91.3637,41.6353]],"type":"LineString"}},{"type":"Feature","properties":{"stroke":"#555555","stroke-width":2,"stroke-opacity":1,"name":""},"geometry":{"coordinates":[[-91.385,41.64],[-91.387,41.6405],[-91.3977,41.6442],[-91.4049,41.6472]],"type":"LineString"}},{"type":"Feature","properties":{"stroke":"#555555","stroke-width":2,"stroke-opacity":1,"name":""},"geometry":{"coordinates":[[-91.423,41.6569],[-91.4264,41.659],[-91.4347,41.6651],[-91.4387,41.6686]],"type":"LineString"}},{"type":"Feature","properties":{"stroke":"#555555","stroke-width":2,"stroke-opacity":1,"name":""},"geometry":{"coordinates":[[-91.4516,41.6822],[-91.4549,41.6864],[-91.4599,41.6942],[-91.4614,41.6971]],"type":"LineString"}},{"type":"Feature","properties":{"stroke":"#555555","stroke-width":2,"stroke-opacity":1,"name":""},"geometry":{"coordinates":[[-91.4677,41.7131],[-91.4692,41.7194],[-91.4695,41.7207],[-91.4695,41.7282],[-91.4693,41.7296]],"type":"LineString"}},{"type":"Feature","properties":{"stroke":"#555555","stroke-width":2,"stroke-opacity":1,"name":""},"geometry":{"coordinates":[[-91.4658,41.7461],[-91.4644,41.7502],[-91.461,41.7573],[-91.4582,41.7617]],"type":"LineString"}},{"type":"Feature","properties":{"stroke":"#555555","stroke-width":2,"stroke-opacity":1,"name":""},"geometry":{"coordinates":[[-91.4467,41.776],[-91.446,41.7767],[-91.4396,41.7824],[-91.4326,41.7877],[-91.4317,41.7882]],"type":"LineString"}},{"type":"Feature","properties":{"stroke":"#555555","stroke-width":2,"stroke-opacity":1,"name":""},"geometry":{"coordinates":[[-91.4138,41.7981],[-91.4081,41.8006],[-91.399,41.8037],[-91.3937,41.8052]],"type":"LineString"}},{"type":"Feature","properties":{"stroke":"#555555","stroke-width":2,"stroke-opacity":1,"name":""},"geometry":{"coordinates":[[-91.3721,41.8093],[-91.3701,41.8096],[-91.3601,41.8103],[-91.3501,41.8103],[-91.3499,41.8103]],"type":"LineString"}},{"type":"Feature","properties":{"stroke":"#555555","stroke-width":2,"stroke-opacity":1,"name":""},"geometry":{"coordinates":[[-91.3277,41.8088],[-91.3214,41.8081],[-91.3112,41.8062],[-91.3061,41.8049]],"type":"LineString"}},{"type":"Feature","properties":{"stroke":"#555555","stroke-width":2,"stroke-opacity":1,"name":""},"geometry":{"coordinates":[[-91.2858,41.7981],[-91.2824,41.7967],[-91.2737,41.7923],[-91.2676,41.7886]],"type":"LineString"}},{"type":"Feature","properties":{"stroke":"#555555","stroke-width":2,"stroke-opacity":1,"name":""},"geometry":{"coordinates":[[-91.2519,41.7767],[-91.251,41.776],[-91.2448,41.7696],[-91.2395,41.763]],"type":"LineString"}},{"type":"Feature","properties":{"stroke":"#555555","stroke-width":2,"stroke-opacity":1,"name":""},"geometry":{"coordinates":[[-91.2307,41.7477],[-91.2281,41.741],[-91.2261,41.7333],[-91.2258,41.7314]],"type":"LineString"}},{"type":"Feature","properties":{"stroke":"#555555","stroke-width":2,"stroke-opacity":1,"name":""},"geometry":{"coordinates":[[-91.2251,41.7148],[-91.2252,41.7131],[-91.2265,41.7055],[-91.2287,41.6983]],"type":"LineString"}},{"type":"Feature","properties":{"stroke":"#555555","stroke-width":2,"stroke-opacity":1,"name":""},"geometry":{"coordinates":[[-91.2364,41.6827],[-91.2404,41.677],[-91.2459,41.6706],[-91.248,41.6685]],"type":"LineString"}},{"type":"Feature","properties":{"stroke":"#555555","stroke-width":2,"stroke-opacity":1,"name":""},"geometry":{"coordinates":[[-91.2629,41.6562],[-91.2665,41.6537],[-91.2746,41.6491],[-91.2806,41.6462]],"type":"LineString"}},{"type":"Feature","properties":{"stroke":"#555555","stroke-width":2,"stroke-opacity":1,"name":""},"geometry":{"coordinates":[[-91.3006,41.6389],[-91.3017,41.6385],[-91.3115,41.6362],[-91.3214,41.6346],[-91.322,41.6345]],"type":"LineString"}},{"type":"Feature","properties":{"stroke":"#555555","stroke-width":2,"stroke-opacity":1,"name":""},"geometry":{"coordinates":[[-91.838,41.8342],[-91.8282,41.8338],[-91.8184,41.8329],[-91.8159,41.8324]],"type":"LineString"}},{"type":"Feature","properties":{"stroke":"#555555","stroke-width":2,"stroke-opacity":1,"name":""},"geometry":{"coordinates":[[-91.7946,41.8275],[-91.7904,41.8262],[-91.7817,41.8228],[-91.775,41.8196]],"type":"LineString"}},{"type":"Feature","properties":{"stroke":"#555555","stroke-width":2,"stroke-opacity":1,"name":""},"geometry":{"coordinates":[[-91.7579,41.809],[-91.7518,41.804],[-91.7458,41.7982],[-91.744,41.796]],"type":"LineString"}},{"type":"Feature","properties":{"stroke":"#555555","stroke-width":2,"stroke-opacity":1,"name":""},"geometry":{"coordinates":[[-91.7337,41.7813],[-91.7323,41.7787],[-91.7293,41.7717],[-91.7274,41.7653]],"type":"LineString"}},{"type":"Feature","properties":{"stroke":"#555555","stroke-width":2,"stroke-opacity":1,"name":""},"geometry":{"coordinates":[[-91.7256,41.7487],[-91.726,41.7426],[-91.7273,41.7353],[-91.7282,41.7322]],"type":"LineString"}},{"type":"Feature","properties":{"stroke":"#555555","stroke-width":2,"stroke-opacity":1,"name":""},"geometry":{"coordinates":[[-91.735,41.7164],[-91.7361,41.7144],[-91.7406,41.7078],[-91.7458,41.7018]],"type":"LineString"}},{"type":"Feature","properties":{"stroke":"#555555","stroke-width":2,"stroke-opacity":1,"name":""},"geometry":{"coordinates":[[-91.7603,41.6892],[-91.7658,41.6855],[-91.7736,41.681],[-91.7778,41.679]],"type":"LineString"}},{"type":"Feature","properties":{"stroke":"#555555","stroke-width":2,"stroke-opacity":1,"name":""},"geometry":{"coordinates":[[-91.7976,41.6715],[-91.7996,41.6708],[-91.809,41.6686],[-91.8186,41.667],[-91.819,41.667]],"type":"LineString"}},{"type":"Feature","properties":{"stroke":"#555555","stroke-width":2,"stroke-opacity":1,"name":""},"geometry":{"coordinates":[[-91.8411,41.6658],[-91.8478,41.6661],[-91.8576,41.667],[-91.8631,41.668]],"type":"LineString"}},{"type":"Feature","properties":{"stroke":"#555555","stroke-width":2,"stroke-opacity":1,"name":""},"geometry":{"coordinates":[[-91.8842,41.6733],[-91.8856,41.6737],[-91.8943,41.6771],[-91.9026,41.6811],[-91.9034,41.6815]],"type":"LineString"}},{"type":"Feature","properties":{"stroke":"#555555","stroke-width":2,"stroke-opacity":1,"name":""},"geometry":{"coordinates":[[-91.9201,41.6925],[-91.9242,41.6959],[-91.9302,41.7018],[-91.9336,41.7057]],"type":"LineString"}},{"type":"Feature","properties":{"stroke":"#555555","stroke-width":2,"stroke-opacity":1,"name":""},"geometry":{"coordinates":[[-91.9434,41.7207],[-91.9437,41.7213],[-91.9467,41.7283],[-91.9488,41.7354],[-91.949,41.7368]],"type":"LineString"}},{"type":"Feature","properties":{"stroke":"#555555","stroke-width":2,"stroke-opacity":1,"name":""},"geometry":{"coordinates":[[-91.9503,41.7534],[-91.9501,41.7572],[-91.9488,41.7645],[-91.9472,41.7699]],"type":"LineString"}},{"type":"Feature","properties":{"stroke":"#555555","stroke-width":2,"stroke-opacity":1,"name":""},"geometry":{"coordinates":[[-91.9399,41.7856],[-91.9355,41.7919],[-91.9303,41.7981],[-91.9285,41.7999]],"type":"LineString"}},{"type":"Feature","properties":{"stroke":"#555555","stroke-width":2,"stroke-opacity":1,"name":""},"geometry":{"coordinates":[[-91.9136,41.8122],[-91.9105,41.8143],[-91.9027,41.8188],[-91.8957,41.8221]],"type":"LineString"}},{"type":"Feature","properties":{"stroke":"#555555","stroke-width":2,"stroke-opacity":1,"name":""},"geometry":{"coordinates":[[-91.8756,41.8293],[-91.8673,41.8312],[-91.8577,41.8328],[-91.854,41.8332]],"type":"LineString"}},{"type":"Feature","properties":{"stroke":"#555555","stroke-width":2,"stroke-opacity":1,"name":""},"geometry":{"coordinates":[[-91.5822,42.0568],[-91.5827,42.0495],[-91.584,42.0422],[-91.5845,42.0403]],"type":"LineString"}},{"type":"Feature","properties":{"stroke":"#555555","stroke-width":2,"stroke-opacity":1,"name":""},"geometry":{"coordinates":[[-91.5911,42.0244],[-91.5928,42.0213],[-91.5974,42.0148],[-91.6017,42.0097]],"type":"LineString"}},{"type":"Feature","properties":{"stroke":"#555555","stroke-width":2,"stroke-opacity":1,"name":""},"geometry":{"coordinates":[[-91.616,41.9969],[-91.6226,41.9924],[-91.6305,41.9879],[-91.6334,41.9865]],"type":"LineString"}},{"type":"Feature","properties":{"stroke":"#555555","stroke-width":2,"stroke-opacity":1,"name":""},"geometry":{"coordinates":[[-91.6532,41.9789],[-91.6567,41.9778],[-91.6661,41.9756],[-91.6746,41.9742]],"type":"LineString"}},{"type":"Feature","properties":{"stroke":"#555555","stroke-width":2,"stroke-opacity":1,"name":""},"geometry":{"coordinates":[[-91.6968,41.9727],[-91.7051,41.973],[-91.7149,41.974],[-91.7189,41.9747]],"type":"LineString"}},{"type":"Feature","properties":{"stroke":"#555555","stroke-width":2,"stroke-opacity":1,"name":""},"geometry":{"coordinates":[[-91.7402,41.9798],[-91.743,41.9806],[-91.7518,41.984],[-91.7597,41.9878]],"type":"LineString"}},{"type":"Feature","properties":{"stroke":"#555555","stroke-width":2,"stroke-opacity":1,"name":""},"geometry":{"coordinates":[[-91.7766,41.9986],[-91.7819,42.0029],[-91.7879,42.0087],[-91.7904,42.0117]],"type":"LineString"}},{"type":"Feature","properties":{"stroke":"#555555","stroke-width":2,"stroke-opacity":1,"name":""},"geometry":{"coordinates":[[-91.8005,42.0265],[-91.8015,42.0282],[-91.8044,42.0352],[-91.8065,42.0424],[-91.8066,42.0426]],"type":"LineString"}},{"type":"Feature","properties":{"stroke":"#555555","stroke-width":2,"stroke-opacity":1,"name":""},"geometry":{"coordinates":[[-91.8081,42.0592],[-91.8078,42.0642],[-91.8066,42.0714],[-91.8053,42.0757]],"type":"LineString"}},{"type":"Feature","properties":{"stroke":"#555555","stroke-width":2,"stroke-opacity":1,"name":""},"geometry":{"coordinates":[[-91.7983,42.0915],[-91.7978,42.0924],[-91.7932,42.0989],[-91.788,42.1051],[-91.7871,42.1059]],"type":"LineString"}},{"type":"Feature","properties":{"stroke":"#555555","stroke-width":2,"stroke-opacity":1,"name":""},"geometry":{"coordinates":[[-91.7723,42.1184],[-91.7681,42.1213],[-91.7603,42.1258],[-91.7546,42.1285]],"type":"LineString"}},{"type":"Feature","properties":{"stroke":"#555555","stroke-width":2,"stroke-opacity":1,"name":""},"geometry":{"coordinates":[[-91.7345,42.1358],[-91.7341,42.1359],[-91.7247,42.1382],[-91.7151,42.1398],[-91.7129,42.14]],"type":"LineString"}},{"type":"Feature","properties":{"stroke":"#555555","stroke-width":2,"stroke-opacity":1,"name":""},"geometry":{"coordinates":[[-91.6906,42.1409],[-91.6854,42.1408],[-91.6756,42.1398],[-91.6684,42.1386]],"type":"LineString"}},{"type":"Feature","properties":{"stroke":"#555555","stroke-width":2,"stroke-opacity":1,"name":""},"geometry":{"coordinates":[[-91.6473,42.1331],[-91.6387,42.1298],[-91.6303,42.1258],[-91.6281,42.1246]],"type":"LineString"}},{"type":"Feature","properties":{"stroke":"#555555","stroke-width":2,"stroke-opacity":1,"name":""},"geometry":{"coordinates":[[-91.6116,42.1134],[-91.6086,42.111],[-91.6026,42.1052],[-91.5982,42.1001]],"type":"LineString"}},{"type":"Feature","properties":{"stroke":"#555555","stroke-width":2,"stroke-opacity":1,"name":""},"geometry":{"coordinates":[[-91.5887,42.085],[-91.586,42.0787],[-91.5839,42.0715],[-91.5834,42.0688]],"type":"LineString"}},{"type":"Feature","properties":{"stroke":"#555555","stroke-width":2,"stroke-opacity":1,"name":""},"geometry":{"coordinates":[[-92.2002,42.0902],[-92.2002,42.0903],[-92.1998,42.0976],[-92.1985,42.1049],[-92.198,42.1067]],"type":"LineString"}},{"type":"Feature","properties":{"stroke":"#555555","stroke-width":2,"stroke-opacity":1,"name":""},"geometry":{"coordinates":[[-92.1915,42.1226],[-92.1897,42.1258],[-92.1852,42.1323],[-92.1809,42.1373]],"type":"LineString"}},{"type":"Feature","properties":{"stroke":"#555555","stroke-width":2,"stroke-opacity":1,"name":""},"geometry":{"coordinates":[[-92.1666,42.1501],[-92.1599,42.1547],[-92.1521,42.1592],[-92.1492,42.1605]],"type":"LineString"}},{"type":"Feature","properties":{"stroke":"#555555","stroke-width":2,"stroke-opacity":1,"name":""},"geometry":{"coordinates":[[-92.1294,42.1682],[-92.1259,42.1693],[-92.1165,42.1715],[-92.1079,42.1729]],"type":"LineString"}},{"type":"Feature","properties":{"stroke":"#555555","stroke-width":2,"stroke-opacity":1,"name":""},"geometry":{"coordinates":[[-92.0856,42.1744],[-92.0771,42.1741],[-92.0673,42.1731],[-92.0634,42.1724]],"type":"LineString"}},{"type":"Feature","properties":{"stroke":"#555555","stroke-width":2,"stroke-opacity":1,"name":""},"geometry":{"coordinates":[[-92.0421,42.1674],[-92.0392,42.1664],[-92.0304,42.163],[-92.0225,42.1593]],"type":"LineString"}},{"type":"Feature","properties":{"stroke":"#555555","stroke-width":2,"stroke-opacity":1,"name":""},"geometry":{"coordinates":[[-92.0056,42.1485],[-92.0004,42.1442],[-91.9944,42.1384],[-91.9918,42.1354]],"type":"LineString"}},{"type":"Feature","properties":{"stroke":"#555555","stroke-width":2,"stroke-opacity":1,"name":""},"geometry":{"coordinates":[[-91.9817,42.1205],[-91.9808,42.1189],[-91.9779,42.1119],[-91.9758,42.1048],[-91.9757,42.1045]],"type":"LineString"}},{"type":"Feature","properties":{"stroke":"#555555","stroke-width":2,"stroke-opacity":1,"name":""},"geometry":{"coordinates":[[-91.9743,42.0879],[-91.9745,42.0829],[-91.9758,42.0757],[-91.9771,42.0714]],"type":"LineString"}},{"type":"Feature","properties":{"stroke":"#555555","stroke-width":2,"stroke-opacity":1,"name":""},"geometry":{"coordinates":[[-91.9842,42.0556],[-91.9847,42.0547],[-91.9892,42.0482],[-91.9945,42.042],[-91.9954,42.0412]],"type":"LineString"}},{"type":"Feature","properties":{"stroke":"#555555","stroke-width":2,"stroke-opacity":1,"name":""},"geometry":{"coordinates":[[-92.0102,42.0287],[-92.0144,42.0258],[-92.0223,42.0213],[-92.0279,42.0186]],"type":"LineString"}},{"type":"Feature","properties":{"stroke":"#555555","stroke-width":2,"stroke-opacity":1,"name":""},"geometry":{"coordinates":[[-92.048,42.0113],[-92.0485,42.0112],[-92.0579,42.0089],[-92.0675,42.0073],[-92.0696,42.0071]],"type":"LineString"}},{"type":"Feature","properties":{"stroke":"#555555","stroke-width":2,"stroke-opacity":1,"name":""},"geometry":{"coordinates":[[-92.0918,42.0062],[-92.0969,42.0064],[-92.1067,42.0073],[-92.1139,42.0085]],"type":"LineString"}},{"type":"Feature","properties":{"stroke":"#555555","stroke-width":2,"stroke-opacity":1,"name":""},"geometry":{"coordinates":[[-92.135,42.014],[-92.1436,42.0173],[-92.152,42.0213],[-92.1542,42.0225]],"type":"LineString"}},{"type":"Feature","properties":{"stroke":"#555555","stroke-width":2,"stroke-opacity":1,"name":""},"geometry":{"coordinates":[[-92.1707,42.0337],[-92.1738,42.0361],[-92.1798,42.0419],[-92.1841,42.047]],"type":"LineString"}},{"type":"Feature","properties":{"stroke":"#555555","stroke-width":2,"stroke-opacity":1,"name":""},"geometry":{"coordinates":[[-92.1937,42.062],[-92.1964,42.0684],[-92.1985,42.0756],[-92.199,42.0782]],"type":"LineString"}},{"type":"Feature","properties":{"stroke":"#555555","stroke-width":2,"stroke-opacity":1,"name":""},"geometry":{"coordinates":[[-91.6268,42.5102],[-91.6232,42.5134],[-91.6203,42.5157],[-91.6164,42.5187],[-91.6132,42.5209],[-91.6089,42.5235]],"type":"LineString"}},{"type":"Feature","properties":{"stroke":"#555555","stroke-width":2,"stroke-opacity":1,"name":""},"geometry":{"coordinates":[[-91.5886,42.5332],[-91.5835,42.535],[-91.5795,42.5363],[-91.5742,42.5377],[-91.5701,42.5387]],"type":"LineString"}},{"type":"Feature","properties":{"stroke":"#555555","stroke-width":2,"stroke-opacity":1,"name":""},"geometry":{"coordinates":[[-91.4345,42.4935],[-91.4308,42.4867],[-91.4278,42.4797],[-91.4257,42.4726]],"type":"LineString"}},{"type":"Feature","properties":{"stroke":"#555555","stroke-width":2,"stroke-opacity":1,"name":""},"geometry":{"coordinates":[[-91.4566,42.5164],[-91.4503,42.5119],[-91.4443,42.5061],[-91.439,42.4999]],"type":"LineString"}},{"type":"Feature","properties":{"stroke":"#555555","stroke-width":2,"stroke-opacity":1,"name":""},"geometry":{"coordinates":[[-91.7214,42.5464],[-91.6989,42.547]],"type":"LineString"}},{"type":"Feature","properties":{"stroke":"#555555","stroke-width":2,"stroke-opacity":1,"name":""},"geometry":{"coordinates":[[-91.6763,42.5464],[-91.6538,42.5456]],"type":"LineString"}},{"type":"Feature","properties":{"stroke":"#555555","stroke-width":2,"stroke-opacity":1,"name":""},"geometry":{"coordinates":[[-91.6313,42.5448],[-91.609,42.5426]],"type":"LineString"}},{"type":"Feature","properties":{"stroke":"#555555","stroke-width":2,"stroke-opacity":1,"name":""},"geometry":{"coordinates":[[-91.5866,42.5404],[-91.5701,42.5387]],"type":"LineString"}},{"type":"Feature","properties":{"stroke":"#555555","stroke-width":2,"stroke-opacity":1,"name":""},"geometry":{"coordinates":[[-91.5481,42.5351],[-91.526,42.5316]],"type":"LineString"}},{"type":"Feature","properties":{"stroke":"#555555","stroke-width":2,"stroke-opacity":1,"name":""},"geometry":{"coordinates":[[-91.5043,42.5273],[-91.4827,42.5224]],"type":"LineString"}},{"type":"Feature","properties":{"stroke":"#555555","stroke-width":2,"stroke-opacity":1,"name":""},"geometry":{"coordinates":[[-91.4612,42.5175],[-91.4566,42.5164]],"type":"LineString"}},{"type":"Feature","properties":{"stroke":"#555555","stroke-width":2,"stroke-opacity":1,"name":""},"geometry":{"coordinates":[[-91.4322,42.502],[-91.4292,42.5006],[-91.4198,42.4971],[-91.412,42.4947]],"type":"LineString"}},{"type":"Feature","properties":{"stroke":"#555555","stroke-width":2,"stroke-opacity":1,"name":""},"geometry":{"coordinates":[[-91.3903,42.4903],[-91.3898,42.4903],[-91.3794,42.4893],[-91.3689,42.489],[-91.3679,42.489]],"type":"LineString"}},{"type":"Feature","properties":{"stroke":"#555555","stroke-width":2,"stroke-opacity":1,"name":""},"geometry":{"coordinates":[[-91.3465,42.4854],[-91.326,42.4785]],"type":"LineString"}},{"type":"Feature","properties":{"stroke":"#555555","stroke-width":2,"stroke-opacity":1,"name":""},"geometry":{"coordinates":[[-91.3061,42.4707],[-91.2863,42.4628]],"type":"LineString"}},{"type":"Feature","properties":{"stroke":"#555555","stroke-width":2,"stroke-opacity":1,"name":""},"geometry":{"coordinates":[[-91.2664,42.455],[-91.255,42.4505],[-91.247,42.4466]],"type":"LineString"}},{"type":"Feature","properties":{"stroke":"#555555","stroke-width":2,"stroke-opacity":1,"name":""},"geometry":{"coordinates":[[-91.2282,42.4375],[-91.2093,42.4283]],"type":"LineString"}},{"type":"Feature","properties":{"stroke":"#555555","stroke-width":2,"stroke-opacity":1,"name":""},"geometry":{"coordinates":[[-91.1905,42.4192],[-91.1895,42.4188],[-91.1727,42.409]],"type":"LineString"}},{"type":"Feature","properties":{"stroke":"#555555","stroke-width":2,"stroke-opacity":1,"name":""},"geometry":{"coordinates":[[-91.155,42.3987],[-91.1374,42.3884]],"type":"LineString"}},{"type":"Feature","properties":{"stroke":"#555555","stroke-width":2,"stroke-opacity":1,"name":""},"geometry":{"coordinates":[[-91.1203,42.3776],[-91.1039,42.3662]],"type":"LineString"}},{"type":"Feature","properties":{"stroke":"#555555","stroke-width":2,"stroke-opacity":1,"name":""},"geometry":{"coordinates":[[-91.0875,42.3548],[-91.0711,42.3434]],"type":"LineString"}},{"type":"Feature","properties":{"stroke":"#555555","stroke-width":2,"stroke-opacity":1,"name":""},"geometry":{"coordinates":[[-91.0561,42.331],[-91.0411,42.3185]],"type":"LineString"}},{"type":"Feature","properties":{"stroke":"#555555","stroke-width":2,"stroke-opacity":1,"name":""},"geometry":{"coordinates":[[-91.0261,42.3061],[-91.0188,42.3001],[-91.0119,42.2932]],"type":"LineString"}},{"type":"Feature","properties":{"stroke":"#555555","stroke-width":2,"stroke-opacity":1,"name":""},"geometry":{"coordinates":[[-90.9984,42.2799],[-90.985,42.2665]],"type":"LineString"}},{"type":"Feature","properties":{"stroke":"#555555","stroke-width":2,"stroke-opacity":1,"name":""},"geometry":{"coordinates":[[-90.9716,42.2532],[-90.9597,42.239]],"type":"LineString"}},{"type":"Feature","properties":{"stroke":"#555555","stroke-width":2,"stroke-opacity":1,"name":""},"geometry":{"coordinates":[[-90.9479,42.2248],[-90.9361,42.2107]],"type":"LineString"}},{"type":"Feature","properties":{"stroke":"#555555","stroke-width":2,"stroke-opacity":1,"name":""},"geometry":{"coordinates":[[-90.9252,42.1961],[-90.915,42.1813]],"type":"LineString"}},{"type":"Feature","properties":{"stroke":"#555555","stroke-width":2,"stroke-opacity":1,"name":""},"geometry":{"coordinates":[[-90.9049,42.1664],[-90.8955,42.1525],[-90.8949,42.1515]],"type":"LineString"}},{"type":"Feature","properties":{"stroke":"#555555","stroke-width":2,"stroke-opacity":1,"name":""},"geometry":{"coordinates":[[-90.8866,42.136],[-90.8783,42.1205]],"type":"LineString"}},{"type":"Feature","properties":{"stroke":"#555555","stroke-width":2,"stroke-opacity":1,"name":""},"geometry":{"coordinates":[[-90.87,42.105],[-90.8665,42.0985],[-90.8627,42.0893]],"type":"LineString"}},{"type":"Feature","properties":{"stroke":"#555555","stroke-width":2,"stroke-opacity":1,"name":""},"geometry":{"coordinates":[[-90.8562,42.0733],[-90.8498,42.0573]],"type":"LineString"}},{"type":"Feature","properties":{"stroke":"#555555","stroke-width":2,"stroke-opacity":1,"name":""},"geometry":{"coordinates":[[-90.8435,42.0414],[-90.8389,42.025]],"type":"LineString"}},{"type":"Feature","properties":{"stroke":"#555555","stroke-width":2,"stroke-opacity":1,"name":""},"geometry":{"coordinates":[[-90.8343,42.0087],[-90.8298,41.9924]],"type":"LineString"}},{"type":"Feature","properties":{"stroke":"#555555","stroke-width":2,"stroke-opacity":1,"name":""},"geometry":{"coordinates":[[-90.8264,41.9759],[-90.8237,41.9594]],"type":"LineString"}},{"type":"Feature","properties":{"stroke":"#555555","stroke-width":2,"stroke-opacity":1,"name":""},"geometry":{"coordinates":[[-90.8211,41.9428],[-90.8188,41.928],[-90.8187,41.9262]],"type":"LineString"}},{"type":"Feature","properties":{"stroke":"#555555","stroke-width":2,"stroke-opacity":1,"name":""},"geometry":{"coordinates":[[-90.818,41.9096],[-90.8173,41.8929]],"type":"LineString"}},{"type":"Feature","properties":{"stroke":"#555555","stroke-width":2,"stroke-opacity":1,"name":""},"geometry":{"coordinates":[[-90.8166,41.8762],[-90.8164,41.8698],[-90.8171,41.8596]],"type":"LineString"}},{"type":"Feature","properties":{"stroke":"#555555","stroke-width":2,"stroke-opacity":1,"name":""},"geometry":{"coordinates":[[-90.8184,41.8429],[-90.8197,41.8263]],"type":"LineString"}},{"type":"Feature","properties":{"stroke":"#555555","stroke-width":2,"stroke-opacity":1,"name":""},"geometry":{"coordinates":[[-90.8212,41.8097],[-90.8244,41.7932]],"type":"LineString"}},{"type":"Feature","properties":{"stroke":"#555555","stroke-width":2,"stroke-opacity":1,"name":""},"geometry":{"coordinates":[[-90.8276,41.7767],[-90.8308,41.7602]],"type":"LineString"}},{"type":"Feature","properties":{"stroke":"#555555","stroke-width":2,"stroke-opacity":1,"name":""},"geometry":{"coordinates":[[-90.8352,41.7438],[-90.8403,41.7276]],"type":"LineString"}},{"type":"Feature","properties":{"stroke":"#555555","stroke-width":2,"stroke-opacity":1,"name":""},"geometry":{"coordinates":[[-90.8454,41.7114],[-90.85,41.6968],[-90.8507,41.6952]],"type":"LineString"}},{"type":"Feature","properties":{"stroke":"#555555","stroke-width":2,"stroke-opacity":1,"name":""},"geometry":{"coordinates":[[-90.8577,41.6794],[-90.8647,41.6635]],"type":"LineString"}},{"type":"Feature","properties":{"stroke":"#555555","stroke-width":2,"stroke-opacity":1,"name":""},"geometry":{"coordinates":[[-90.8717,41.6477],[-90.8745,41.6413]],"type":"LineString"}},{"type":"Feature","properties":{"stroke":"#555555","stroke-width":2,"stroke-opacity":1,"name":""},"geometry":{"coordinates":[[-90.8843,41.6263],[-90.894,41.6113]],"type":"LineString"}},{"type":"Feature","properties":{"stroke":"#555555","stroke-width":2,"stroke-opacity":1,"name":""},"geometry":{"coordinates":[[-90.9037,41.5963],[-90.9134,41.5813]],"type":"LineString"}},{"type":"Feature","properties":{"stroke":"#555555","stroke-width":2,"stroke-opacity":1,"name":""},"geometry":{"coordinates":[[-90.9231,41.5663],[-90.9328,41.5513]],"type":"LineString"}},{"type":"Feature","properties":{"stroke":"#555555","stroke-width":2,"stroke-opacity":1,"name":""},"geometry":{"coordinates":[[-90.9425,41.5363],[-90.9522,41.5213]],"type":"LineString"}},{"type":"Feature","properties":{"stroke":"#555555","stroke-width":2,"stroke-opacity":1,"name":""},"geometry":{"coordinates":[[-90.9688,41.5031],[-90.9823,41.4899]],"type":"LineString"}},{"type":"Feature","properties":{"stroke":"#555555","stroke-width":2,"stroke-opacity":1,"name":""},"geometry":{"coordinates":[[-90.9959,41.4767],[-91.0066,41.4662],[-91.0097,41.4637]],"type":"LineString"}},{"type":"Feature","properties":{"stroke":"#555555","stroke-width":2,"stroke-opacity":1,"name":""},"geometry":{"coordinates":[[-91.0247,41.4514],[-91.0397,41.4391]],"type":"LineString"}},{"type":"Feature","properties":{"stroke":"#555555","stroke-width":2,"stroke-opacity":1,"name":""},"geometry":{"coordinates":[[-91.0547,41.4268],[-91.0614,41.4213],[-91.0704,41.4151]],"type":"LineString"}},{"type":"Feature","properties":{"stroke":"#555555","stroke-width":2,"stroke-opacity":1,"name":""},"geometry":{"coordinates":[[-91.0868,41.4039],[-91.1032,41.3926]],"type":"LineString"}},{"type":"Feature","properties":{"stroke":"#555555","stroke-width":2,"stroke-opacity":1,"name":""},"geometry":{"coordinates":[[-91.1195,41.3814],[-91.1213,41.3801],[-91.137,41.3711]],"type":"LineString"}},{"type":"Feature","properties":{"stroke":"#555555","stroke-width":2,"stroke-opacity":1,"name":""},"geometry":{"coordinates":[[-91.1545,41.361],[-91.1721,41.3509]],"type":"LineString"}},{"type":"Feature","properties":{"stroke":"#555555","stroke-width":2,"stroke-opacity":1,"name":""},"geometry":{"coordinates":[[-91.1899,41.341],[-91.2086,41.3321]],"type":"LineString"}},{"type":"Feature","properties":{"stroke":"#555555","stroke-width":2,"stroke-opacity":1,"name":""},"geometry":{"coordinates":[[-91.2273,41.3231],[-91.246,41.3142]],"type":"LineString"}},{"type":"Feature","properties":{"stroke":"#555555","stroke-width":2,"stroke-opacity":1,"name":""},"geometry":{"coordinates":[[-91.2652,41.306],[-91.2848,41.2983]],"type":"LineString"}},{"type":"Feature","properties":{"stroke":"#555555","stroke-width":2,"stroke-opacity":1,"name":""},"geometry":{"coordinates":[[-91.3044,41.2906],[-91.324,41.2829]],"type":"LineString"}},{"type":"Feature","properties":{"stroke":"#555555","stroke-width":2,"stroke-opacity":1,"name":""},"geometry":{"coordinates":[[-91.3444,41.2764],[-91.3648,41.27]],"type":"LineString"}},{"type":"Feature","properties":{"stroke":"#555555","stroke-width":2,"stroke-opacity":1,"name":""},"geometry":{"coordinates":[[-91.3852,41.2637],[-91.4014,41.2586],[-91.4058,41.2576]],"type":"LineString"}},{"type":"Feature","properties":{"stroke":"#555555","stroke-width":2,"stroke-opacity":1,"name":""},"geometry":{"coordinates":[[-91.4269,41.2526],[-91.448,41.2476]],"type":"LineString"}},{"type":"Feature","properties":{"stroke":"#555555","stroke-width":2,"stroke-opacity":1,"name":""},"geometry":{"coordinates":[[-91.469,41.2426],[-91.4789,41.2402],[-91.4904,41.2383]],"type":"LineString"}},{"type":"Feature","properties":{"stroke":"#555555","stroke-width":2,"stroke-opacity":1,"name":""},"geometry":{"coordinates":[[-91.5119,41.2347],[-91.5335,41.2311]],"type":"LineString"}},{"type":"Feature","properties":{"stroke":"#555555","stroke-width":2,"stroke-opacity":1,"name":""},"geometry":{"coordinates":[[-91.5551,41.2275],[-91.5583,41.227],[-91.5769,41.2251]],"type":"LineString"}},{"type":"Feature","properties":{"stroke":"#555555","stroke-width":2,"stroke-opacity":1,"name":""},"geometry":{"coordinates":[[-91.5988,41.223],[-91.6207,41.2208]],"type":"LineString"}},{"type":"Feature","properties":{"stroke":"#555555","stroke-width":2,"stroke-opacity":1,"name":""},"geometry":{"coordinates":[[-91.6426,41.2189],[-91.6647,41.2182]],"type":"LineString"}},{"type":"Feature","properties":{"stroke":"#555555","stroke-width":2,"stroke-opacity":1,"name":""},"geometry":{"coordinates":[[-91.6868,41.2174],[-91.7088,41.2167]],"type":"LineString"}},{"type":"Feature","properties":{"stroke":"#555555","stroke-width":2,"stroke-opacity":1,"name":""},"geometry":{"coordinates":[[-91.7309,41.2165],[-91.753,41.2169]],"type":"LineString"}},{"type":"Feature","properties":{"stroke":"#555555","stroke-width":2,"stroke-opacity":1,"name":""},"geometry":{"coordinates":[[-91.775,41.2178],[-91.797,41.2194]],"type":"LineString"}},{"type":"Feature","properties":{"stroke":"#555555","stroke-width":2,"stroke-opacity":1,"name":""},"geometry":{"coordinates":[[-91.819,41.2209],[-91.841,41.2225]],"type":"LineString"}},{"type":"Feature","properties":{"stroke":"#555555","stroke-width":2,"stroke-opacity":1,"name":""},"geometry":{"coordinates":[[-91.8533,41.2343],[-91.8548,41.2364],[-91.8602,41.2428],[-91.8656,41.2481]],"type":"LineString"}},{"type":"Feature","properties":{"stroke":"#555555","stroke-width":2,"stroke-opacity":1,"name":""},"geometry":{"coordinates":[[-91.8812,41.2598],[-91.8882,41.2639],[-91.8966,41.2679],[-91.8996,41.2691]],"type":"LineString"}},{"type":"Feature","properties":{"stroke":"#555555","stroke-width":2,"stroke-opacity":1,"name":""},"geometry":{"coordinates":[[-91.9199,41.2755],[-91.9242,41.2765],[-91.934,41.2781],[-91.9415,41.2789]],"type":"LineString"}},{"type":"Feature","properties":{"stroke":"#555555","stroke-width":2,"stroke-opacity":1,"name":""},"geometry":{"coordinates":[[-91.9636,41.2791],[-91.9637,41.2791],[-91.9736,41.2781],[-91.9834,41.2765],[-91.9853,41.276]],"type":"LineString"}},{"type":"Feature","properties":{"stroke":"#555555","stroke-width":2,"stroke-opacity":1,"name":""},"geometry":{"coordinates":[[-92.0058,41.2699],[-92.0109,41.2679],[-92.0194,41.2639],[-92.0244,41.261]],"type":"LineString"}},{"type":"Feature","properties":{"stroke":"#555555","stroke-width":2,"stroke-opacity":1,"name":""},"geometry":{"coordinates":[[-92.0445,41.2644],[-92.0539,41.2671],[-92.0649,41.2709]],"type":"LineString"}},{"type":"Feature","properties":{"stroke":"#555555","stroke-width":2,"stroke-opacity":1,"name":""},"geometry":{"coordinates":[[-92.085,41.2778],[-92.1051,41.2847]],"type":"LineString"}},{"type":"Feature","properties":{"stroke":"#555555","stroke-width":2,"stroke-opacity":1,"name":""},"geometry":{"coordinates":[[-92.1251,41.2917],[-92.1444,41.2999]],"type":"LineString"}},{"type":"Feature","properties":{"stroke":"#555555","stroke-width":2,"stroke-opacity":1,"name":""},"geometry":{"coordinates":[[-92.1636,41.3082],[-92.1829,41.3164]],"type":"LineString"}},{"type":"Feature","properties":{"stroke":"#555555","stroke-width":2,"stroke-opacity":1,"name":""},"geometry":{"coordinates":[[-92.2016,41.3252],[-92.2198,41.3347]],"type":"LineString"}},{"type":"Feature","properties":{"stroke":"#555555","stroke-width":2,"stroke-opacity":1,"name":""},"geometry":{"coordinates":[[-92.238,41.3442],[-92.2558,41.3534],[-92.2562,41.3536]],"type":"LineString"}},{"type":"Feature","properties":{"stroke":"#555555","stroke-width":2,"stroke-opacity":1,"name":""},"geometry":{"coordinates":[[-92.2733,41.3642],[-92.2904,41.3749]],"type":"LineString"}},{"type":"Feature","properties":{"stroke":"#555555","stroke-width":2,"stroke-opacity":1,"name":""},"geometry":{"coordinates":[[-92.3074,41.3855],[-92.3156,41.3905],[-92.3238,41.3967]],"type":"LineString"}},{"type":"Feature","properties":{"stroke":"#555555","stroke-width":2,"stroke-opacity":1,"name":""},"geometry":{"coordinates":[[-92.3396,41.4083],[-92.3554,41.42]],"type":"LineString"}},{"type":"Feature","properties":{"stroke":"#555555","stroke-width":2,"stroke-opacity":1,"name":""},"geometry":{"coordinates":[[-92.3712,41.4318],[-92.3856,41.4444]],"type":"LineString"}},{"type":"Feature","properties":{"stroke":"#555555","stroke-width":2,"stroke-opacity":1,"name":""},"geometry":{"coordinates":[[-92.3999,41.4571],[-92.4143,41.4698]],"type":"LineString"}},{"type":"Feature","properties":{"stroke":"#555555","stroke-width":2,"stroke-opacity":1,"name":""},"geometry":{"coordinates":[[-92.4279,41.483],[-92.4408,41.4966]],"type":"LineString"}},{"type":"Feature","properties":{"stroke":"#555555","stroke-width":2,"stroke-opacity":1,"name":""},"geometry":{"coordinates":[[-92.4536,41.5101],[-92.466,41.5232],[-92.4664,41.5238]],"type":"LineString"}},{"type":"Feature","properties":{"stroke":"#555555","stroke-width":2,"stroke-opacity":1,"name":""},"geometry":{"coordinates":[[-92.4777,41.5381],[-92.4889,41.5525]],"type":"LineString"}},{"type":"Feature","properties":{"stroke":"#555555","stroke-width":2,"stroke-opacity":1,"name":""},"geometry":{"coordinates":[[-92.5002,41.5669],[-92.5052,41.5733],[-92.5105,41.5816]],"type":"LineString"}},{"type":"Feature","properties":{"stroke":"#555555","stroke-width":2,"stroke-opacity":1,"name":""},"geometry":{"coordinates":[[-92.52,41.5967],[-92.5296,41.6117]],"type":"LineString"}},{"type":"Feature","properties":{"stroke":"#555555","stroke-width":2,"stroke-opacity":1,"name":""},"geometry":{"coordinates":[[-92.539,41.6268],[-92.5468,41.6425]],"type":"LineString"}},{"type":"Feature","properties":{"stroke":"#555555","stroke-width":2,"stroke-opacity":1,"name":""},"geometry":{"coordinates":[[-92.5545,41.6581],[-92.5623,41.6737]],"type":"LineString"}},{"type":"Feature","properties":{"stroke":"#555555","stroke-width":2,"stroke-opacity":1,"name":""},"geometry":{"coordinates":[[-92.569,41.6896],[-92.5749,41.7057]],"type":"LineString"}},{"type":"Feature","properties":{"stroke":"#555555","stroke-width":2,"stroke-opacity":1,"name":""},"geometry":{"coordinates":[[-92.5808,41.7218],[-92.586,41.7359],[-92.5865,41.7379]],"type":"LineString"}},{"type":"Feature","properties":{"stroke":"#555555","stroke-width":2,"stroke-opacity":1,"name":""},"geometry":{"coordinates":[[-92.5905,41.7543],[-92.5945,41.7707]],"type":"LineString"}},{"type":"Feature","properties":{"stroke":"#555555","stroke-width":2,"stroke-opacity":1,"name":""},"geometry":{"coordinates":[[-92.5986,41.7871],[-92.6,41.7929],[-92.6017,41.8036]],"type":"LineString"}},{"type":"Feature","properties":{"stroke":"#555555","stroke-width":2,"stroke-opacity":1,"name":""},"geometry":{"coordinates":[[-92.6039,41.8201],[-92.6053,41.8368]],"type":"LineString"}},{"type":"Feature","properties":{"stroke":"#555555","stroke-width":2,"stroke-opacity":1,"name":""},"geometry":{"coordinates":[[-92.6067,41.8534],[-92.6081,41.8701]],"type":"LineString"}},{"type":"Feature","properties":{"stroke":"#555555","stroke-width":2,"stroke-opacity":1,"name":""},"geometry":{"coordinates":[[-92.6077,41.8867],[-92.6071,41.9034]],"type":"LineString"}},{"type":"Feature","properties":{"stroke":"#555555","stroke-width":2,"stroke-opacity":1,"name":""},"geometry":{"coordinates":[[-92.6065,41.9201],[-92.6062,41.9295],[-92.6051,41.9367]],"type":"LineString"}},{"type":"Feature","properties":{"stroke":"#555555","stroke-width":2,"stroke-opacity":1,"name":""},"geometry":{"coordinates":[[-92.6026,41.9533],[-92.6,41.9698]],"type":"LineString"}},{"type":"Feature","properties":{"stroke":"#555555","stroke-width":2,"stroke-opacity":1,"name":""},"geometry":{"coordinates":[[-92.5975,41.9864],[-92.5974,41.9869],[-92.5931,42.0027]],"type":"LineString"}},{"type":"Feature","properties":{"stroke":"#555555","stroke-width":2,"stroke-opacity":1,"name":""},"geometry":{"coordinates":[[-92.5886,42.0191],[-92.5842,42.0354]],"type":"LineString"}},{"type":"Feature","properties":{"stroke":"#555555","stroke-width":2,"stroke-opacity":1,"name":""},"geometry":{"coordinates":[[-92.5787,42.0516],[-92.5723,42.0675]],"type":"LineString"}},{"type":"Feature","properties":{"stroke":"#555555","stroke-width":2,"stroke-opacity":1,"name":""},"geometry":{"coordinates":[[-92.566,42.0835],[-92.56,42.0986],[-92.5595,42.0995]],"type":"LineString"}},{"type":"Feature","properties":{"stroke":"#555555","stroke-width":2,"stroke-opacity":1,"name":""},"geometry":{"coordinates":[[-92.5513,42.115],[-92.543,42.1305]],"type":"LineString"}},{"type":"Feature","properties":{"stroke":"#555555","stroke-width":2,"stroke-opacity":1,"name":""},"geometry":{"coordinates":[[-92.5348,42.146],[-92.5315,42.1522],[-92.5255,42.1611]],"type":"LineString"}},{"type":"Feature","properties":{"stroke":"#555555","stroke-width":2,"stroke-opacity":1,"name":""},"geometry":{"coordinates":[[-92.5155,42.1761],[-92.5055,42.191]],"type":"LineString"}},{"type":"Feature","properties":{"stroke":"#555555","stroke-width":2,"stroke-opacity":1,"name":""},"geometry":{"coordinates":[[-92.4952,42.2058],[-92.4834,42.22]],"type":"LineString"}},{"type":"Feature","properties":{"stroke":"#555555","stroke-width":2,"stroke-opacity":1,"name":""},"geometry":{"coordinates":[[-92.4717,42.2342],[-92.4599,42.2484]],"type":"LineString"}},{"type":"Feature","properties":{"stroke":"#555555","stroke-width":2,"stroke-opacity":1,"name":""},"geometry":{"coordinates":[[-92.447,42.262],[-92.4337,42.2754]],"type":"LineString"}},{"type":"Feature","properties":{"stroke":"#555555","stroke-width":2,"stroke-opacity":1,"name":""},"geometry":{"coordinates":[[-92.4203,42.2888],[-92.4102,42.2988],[-92.4065,42.302]],"type":"LineString"}},{"type":"Feature","properties":{"stroke":"#555555","stroke-width":2,"stroke-opacity":1,"name":""},"geometry":{"coordinates":[[-92.3916,42.3144],[-92.3767,42.3269]],"type":"LineString"}},{"type":"Feature","properties":{"stroke":"#555555","stroke-width":2,"stroke-opacity":1,"name":""},"geometry":{"coordinates":[[-92.3618,42.3394],[-92.3588,42.3418],[-92.3457,42.351]],"type":"LineString"}},{"type":"Feature","properties":{"stroke":"#555555","stroke-width":2,"stroke-opacity":1,"name":""},"geometry":{"coordinates":[[-92.3294,42.3625],[-92.3131,42.3739]],"type":"LineString"}},{"type":"Feature","properties":{"stroke":"#555555","stroke-width":2,"stroke-opacity":1,"name":""},"geometry":{"coordinates":[[-92.2963,42.385],[-92.2787,42.3954]],"type":"LineString"}},{"type":"Feature","properties":{"stroke":"#555555","stroke-width":2,"stroke-opacity":1,"name":""},"geometry":{"coordinates":[[-92.261,42.4057],[-92.2434,42.4161]],"type":"LineString"}},{"type":"Feature","properties":{"stroke":"#555555","stroke-width":2,"stroke-opacity":1,"name":""},"geometry":{"coordinates":[[-92.2274,42.4298],[-92.2149,42.4406],[-92.2127,42.4424]],"type":"LineString"}},{"type":"Feature","properties":{"stroke":"#555555","stroke-width":2,"stroke-opacity":1,"name":""},"geometry":{"coordinates":[[-92.1969,42.4543],[-92.1854,42.4625],[-92.1806,42.4657]],"type":"LineString"}},{"type":"Feature","properties":{"stroke":"#555555","stroke-width":2,"stroke-opacity":1,"name":""},"geometry":{"coordinates":[[-92.1633,42.4765],[-92.1535,42.4824],[-92.1456,42.4868]],"type":"LineString"}},{"type":"Feature","properties":{"stroke":"#555555","stroke-width":2,"stroke-opacity":1,"name":""},"geometry":{"coordinates":[[-92.1271,42.4963],[-92.1193,42.5002],[-92.1082,42.5053]],"type":"LineString"}},{"type":"Feature","properties":{"stroke":"#555555","stroke-width":2,"stroke-opacity":1,"name":""},"geometry":{"coordinates":[[-92.0886,42.5135],[-92.0831,42.5157],[-92.0703,42.5205],[-92.0685,42.5211]],"type":"LineString"}},{"type":"Feature","properties":{"stroke":"#555555","stroke-width":2,"stroke-opacity":1,"name":""},"geometry":{"coordinates":[[-92.048,42.528],[-92.0452,42.5289],[-92.0319,42.5328],[-92.027,42.5341]],"type":"LineString"}},{"type":"Feature","properties":{"stroke":"#555555","stroke-width":2,"stroke-opacity":1,"name":""},"geometry":{"coordinates":[[-92.0057,42.5396],[-91.9923,42.5426],[-91.9841,42.5441]],"type":"LineString"}},{"type":"Feature","properties":{"stroke":"#555555","stroke-width":2,"stroke-opacity":1,"name":""},"geometry":{"coordinates":[[-91.9622,42.5481],[-91.9516,42.5498],[-91.94,42.5512]],"type":"LineString"}},{"type":"Feature","properties":{"stroke":"#555555","stroke-width":2,"stroke-opacity":1,"name":""},"geometry":{"coordinates":[[-91.9177,42.5537],[-91.9102,42.5543],[-91.8953,42.5552]],"type":"LineString"}},{"type":"Feature","properties":{"stroke":"#555555","stroke-width":2,"stroke-opacity":1,"name":""},"geometry":{"coordinates":[[-91.8728,42.5561],[-91.8684,42.5562],[-91.8502,42.5561]],"type":"LineString"}},{"type":"Feature","properties":{"stroke":"#555555","stroke-width":2,"stroke-opacity":1,"name":""},"geometry":{"coordinates":[[-91.8277,42.5554],[-91.8266,42.5554],[-91.8052,42.5538]],"type":"LineString"}},{"type":"Feature","properties":{"stroke":"#555555","stroke-width":2,"stroke-opacity":1,"name":""},"geometry":{"coordinates":[[-91.7829,42.5516],[-91.7608,42.5485]],"type":"LineString"}},{"type":"Feature","properties":{"stroke":"#555555","stroke-width":2,"stroke-opacity":1,"name":""},"geometry":{"coordinates":[[-91.7133,41.8795],[-91.7153,41.881]],"type":"LineString"}},{"type":"Feature","properties":{"stroke":"#555555","stroke-width":2,"stroke-opacity":1,"name":""},"geometry":{"coordinates":[[-91.7126,41.8797],[-91.715,41.8815]],"type":"LineString"}},{"type":"Feature","properties":{"stroke":"#555555","stroke-width":2,"stroke-opacity":1,"name":""},"geometry":{"coordinates":[[-91.712,41.8801],[-91.7145,41.8819]],"type":"LineString"}},{"type":"Feature","properties":{"stroke":"#555555","stroke-width":2,"stroke-opacity":1,"name":""},"geometry":{"coordinates":[[-91.7117,41.8806],[-91.7138,41.8821]],"type":"LineString"}},{"type":"Feature","properties":{"stroke":"#555555","stroke-width":2,"stroke-opacity":1,"name":""},"geometry":{"coordinates":[[-91.7122,41.8818],[-91.7124,41.8819],[-91.7126,41.882],[-91.7128,41.882],[-91.713,41.8821],[-91.7132,41.8821],[-91.7135,41.8822],[-91.7137,41.8822],[-91.714,41.8821],[-91.7142,41.8821],[-91.7145,41.882],[-91.7147,41.8819],[-91.7149,41.8818],[-91.715,41.8816],[-91.7152,41.8815],[-91.7153,41.8813],[-91.7153,41.8812],[-91.7154,41.881],[-91.7154,41.8809],[-91.7154,41.8807],[-91.7154,41.8805],[-91.7153,41.8804],[-91.7152,41.8802],[-91.7151,41.88],[-91.715,41.8799],[-91.7148,41.8797],[-91.7146,41.8796],[-91.7143,41.8795],[-91.7141,41.8795],[-91.7139,41.8794],[-91.7136,41.8794],[-91.7134,41.8794],[-91.7132,41.8794],[-91.713,41.8795],[-91.7128,41.8795],[-91.7126,41.8796],[-91.7124,41.8797],[-91.7123,41.8798],[-91.7121,41.8799],[-91.712,41.8801],[-91.7118,41.8803],[-91.7118,41.8805],[-91.7117,41.8806],[-91.7117,41.8808],[-91.7117,41.881],[-91.7118,41.8812],[-91.7119,41.8814],[-91.712,41.8815],[-91.7121,41.8817],[-91.7122,41.8818]],"type":"LineString"}},{"type":"Feature","properties":{"stroke":"#555555","stroke-width":2,"stroke-opacity":1,"name":""},"geometry":{"coordinates":[[-93.2283,40.6655],[-93.2273,40.6656]],"type":"LineString"}},{"type":"Feature","properties":{"stroke":"#555555","stroke-width":2,"stroke-opacity":1,"name":""},"geometry":{"coordinates":[[-93.2289,40.6669],[-93.2289,40.6661]],"type":"LineString"}},{"type":"Feature","properties":{"stroke":"#555555","stroke-width":2,"stroke-opacity":1,"name":""},"geometry":{"coordinates":[[-93.2273,40.6675],[-93.2283,40.6674]],"type":"LineString"}},{"type":"Feature","properties":{"stroke":"#555555","stroke-width":2,"stroke-opacity":1,"name":""},"geometry":{"coordinates":[[-93.2269,40.6661],[-93.2269,40.6669]],"type":"LineString"}},{"type":"Feature","properties":{"stroke":"#555555","stroke-width":2,"stroke-opacity":1,"name":""},"geometry":{"coordinates":[[-93.2269,40.6661],[-93.2269,40.6659],[-93.2271,40.6659],[-93.2271,40.6657],[-93.2273,40.6657],[-93.2273,40.6656]],"type":"LineString"}},{"type":"Feature","properties":{"stroke":"#555555","stroke-width":2,"stroke-opacity":1,"name":""},"geometry":{"coordinates":[[-93.2289,40.6669],[-93.2287,40.6669],[-93.2287,40.6671],[-93.2287,40.6673],[-93.2285,40.6673],[-93.2283,40.6673],[-93.2283,40.6674]],"type":"LineString"}},{"type":"Feature","properties":{"stroke":"#555555","stroke-width":2,"stroke-opacity":1,"name":""},"geometry":{"coordinates":[[-93.2289,40.6661],[-93.2287,40.6661],[-93.2287,40.6659],[-93.2287,40.6657],[-93.2285,40.6657],[-93.2283,40.6657],[-93.2283,40.6655]],"type":"LineString"}},{"type":"Feature","properties":{"stroke":"#555555","stroke-width":2,"stroke-opacity":1,"name":""},"geometry":{"coordinates":[[-93.2269,40.6669],[-93.2269,40.6671],[-93.2271,40.6671],[-93.2271,40.6673],[-93.2273,40.6673],[-93.2273,40.6675]],"type":"LineString"}},{"type":"Feature","properties":{"stroke":"#555555","stroke-width":2,"stroke-opacity":1,"name":""},"geometry":{"coordinates":[[-92.8393,40.6705],[-92.8383,40.6705]],"type":"LineString"}},{"type":"Feature","properties":{"stroke":"#555555","stroke-width":2,"stroke-opacity":1,"name":""},"geometry":{"coordinates":[[-92.8399,40.6719],[-92.8399,40.671]],"type":"LineString"}},{"type":"Feature","properties":{"stroke":"#555555","stroke-width":2,"stroke-opacity":1,"name":""},"geometry":{"coordinates":[[-92.8383,40.6724],[-92.8393,40.6724]],"type":"LineString"}},{"type":"Feature","properties":{"stroke":"#555555","stroke-width":2,"stroke-opacity":1,"name":""},"geometry":{"coordinates":[[-92.8379,40.671],[-92.8379,40.6719]],"type":"LineString"}},{"type":"Feature","properties":{"stroke":"#555555","stroke-width":2,"stroke-opacity":1,"name":""},"geometry":{"coordinates":[[-92.8379,40.671],[-92.8379,40.6708],[-92.8381,40.6708],[-92.8381,40.6707],[-92.8383,40.6707],[-92.8383,40.6705]],"type":"LineString"}},{"type":"Feature","properties":{"stroke":"#555555","stroke-width":2,"stroke-opacity":1,"name":""},"geometry":{"coordinates":[[-92.8399,40.6719],[-92.8397,40.6719],[-92.8397,40.672],[-92.8397,40.6722],[-92.8395,40.6722],[-92.8393,40.6722],[-92.8393,40.6724]],"type":"LineString"}},{"type":"Feature","properties":{"stroke":"#555555","stroke-width":2,"stroke-opacity":1,"name":""},"geometry":{"coordinates":[[-92.8399,40.671],[-92.8397,40.671],[-92.8397,40.6708],[-92.8397,40.6707],[-92.8395,40.6707],[-92.8393,40.6707],[-92.8393,40.6705]],"type":"LineString"}},{"type":"Feature","properties":{"stroke":"#555555","stroke-width":2,"stroke-opacity":1,"name":""},"geometry":{"coordinates":[[-92.8379,40.6719],[-92.8379,40.6721],[-92.8381,40.672],[-92.8381,40.6722],[-92.8383,40.6722],[-92.8383,40.6724]],"type":"LineString"}}]}